{
"type": "FeatureCollection",
"name": "mekong_basin",
"crs": { "type": "name", "properties": { "name": "urn:ogc:def:crs:OGC:1.3:CRS84" } },
"features": [
{ "type": "Feature", "properties": { "name": "Mekong River Basin", "source": "GRDC Major River Basins of the World, 2nd ed. (2020), MRBID 2421; simplified 0.01 deg" }, "geometry": { "type": "Polygon", "coordinates": [ [ [ 106.500000000200032, 9.829166666487822 ], [ 106.520266045503092, 9.806377156678423 ], [ 106.520833333377198, 9.766666666491972 ], [ 106.575567287984597, 9.734330919045362 ], [ 106.574432712265548, 9.643622843322191 ], [ 106.532365587162928, 9.575395880660494 ], [ 106.50221048991574, 9.554733954622293 ], [ 106.425746663494806, 9.528599378928334 ], [ 106.371829223836187, 9.529779391962279 ], [ 106.3408157347111, 9.57414906836101 ], [ 106.287499999950171, 9.608333333588917 ], [ 106.228141445411495, 9.611932712017676 ], [ 106.152094692854519, 9.682873535283022 ], [ 106.134184265332976, 9.675850931843115 ], [ 106.089953613385205, 9.745475769180587 ], [ 106.056122843187495, 9.729733954438188 ], [ 105.961688910824762, 9.840659925640921 ], [ 105.937499999823956, 9.841666666420906 ], [ 105.907463582313937, 9.890796915665476 ], [ 105.864583333344967, 9.912007649902193 ], [ 105.845521715064706, 9.901030476715619 ], [ 105.845833333082112, 9.920833333178507 ], [ 105.794091118708764, 9.887853325756225 ], [ 105.754166666918138, 9.900000000064381 ], [ 105.740931532309617, 9.940864054401345 ], [ 105.709140353518819, 9.946538967359572 ], [ 105.704166666405456, 9.962499999984232 ], [ 105.703599378583021, 10.011285061499905 ], [ 105.728704833861059, 10.039592149431883 ], [ 105.684548272225129, 10.049432712031489 ], [ 105.683900621155317, 10.077951727761786 ], [ 105.66355455172021, 10.088186475778002 ], [ 105.657482571067703, 10.115815735109265 ], [ 105.634548271783672, 10.121400621334544 ], [ 105.595833333402993, 10.095833333531573 ], [ 105.558333333451117, 10.145833333467351 ], [ 105.488714938776582, 10.113067287679257 ], [ 105.482162136596799, 10.095436096030198 ], [ 105.4519561765253, 10.108900621348539 ], [ 105.454733954576056, 10.142603895208481 ], [ 105.429765150315461, 10.163415696660252 ], [ 105.429166666757794, 10.183333333419 ], [ 105.379168701173739, 10.209930419773855 ], [ 105.378576999344546, 10.257381524067512 ], [ 105.362499999984095, 10.250000000192699 ], [ 105.354519992514724, 10.268408881443349 ], [ 105.370833333114319, 10.354166666918275 ], [ 105.286488172824988, 10.354733954741903 ], [ 105.257436794631928, 10.321565077220725 ], [ 105.172575547829524, 10.321186658942111 ], [ 105.162500000240925, 10.337500000080354 ], [ 105.175567288051809, 10.368877156564906 ], [ 105.204733954354936, 10.390451727913558 ], [ 105.191099378652154, 10.398785061072203 ], [ 105.220199584785462, 10.425642903674202 ], [ 105.23245781800756, 10.420583089328375 ], [ 105.234078301185264, 10.43646986236098 ], [ 105.295833333210624, 10.458333333066321 ], [ 105.300845675882385, 10.515952555464594 ], [ 105.312500000048374, 10.520833333563303 ], [ 105.250000000128694, 10.537499999823694 ], [ 105.191197374092212, 10.482715861027941 ], [ 105.166050889801056, 10.504784138765615 ], [ 105.115667046582473, 10.436882527910882 ], [ 105.097910224183522, 10.441109890353744 ], [ 105.045364040588652, 10.403549194283187 ], [ 105.025999620369873, 10.408950805703739 ], [ 104.995833333595726, 10.379166666885851 ], [ 104.974999999903901, 10.387500000016246 ], [ 104.970215861042163, 10.40696546773006 ], [ 104.99933200409356, 10.417479112555895 ], [ 105.007771809744725, 10.46041666651746 ], [ 104.99170057494058, 10.472194417274011 ], [ 104.987499999903605, 10.541666666675951 ], [ 104.966005452703882, 10.574100409609684 ], [ 104.950899590142569, 10.57850545257952 ], [ 104.89166666686998, 10.541666666677543 ], [ 104.854166666918104, 10.616666666581295 ], [ 104.812500000112379, 10.599999999743545 ], [ 104.775758870571508, 10.609055921726338 ], [ 104.761439514250014, 10.649267578131514 ], [ 104.725850931732964, 10.671684095622311 ], [ 104.725000000224782, 10.695833333338896 ], [ 104.674749755935238, 10.717542182268915 ], [ 104.683318074613624, 10.732083468972917 ], [ 104.655216980145894, 10.738142903826372 ], [ 104.645199584923603, 10.724357096436506 ], [ 104.624999999775582, 10.737500000144394 ], [ 104.59929148337045, 10.844945950208853 ], [ 104.525967746092135, 10.896229383624643 ], [ 104.541313341044599, 10.952424452254036 ], [ 104.520833333050234, 11.024999999775787 ], [ 104.500875515234441, 11.029416910948044 ], [ 104.4947818331093, 11.004841105137757 ], [ 104.36495005290061, 11.008686659176874 ], [ 104.348287116267784, 10.98368835451555 ], [ 104.317517598518975, 10.980017428946496 ], [ 104.307766045466281, 11.052210489971571 ], [ 104.275000000224566, 11.116666666517062 ], [ 104.251742214685009, 11.117019992224982 ], [ 104.227453104612437, 11.153812323623356 ], [ 104.197575547912436, 11.158686659011153 ], [ 104.181264071875887, 11.179167514373205 ], [ 104.164924452184835, 11.167019992169571 ], [ 104.092024739786098, 11.172543165593481 ], [ 104.108900621403734, 11.223785061155183 ], [ 104.062853325618107, 11.251742214519254 ], [ 104.06666666677387, 11.33333333309821 ], [ 104.05462646495215, 11.352094692688524 ], [ 104.067233954617564, 11.369618394658403 ], [ 104.025582885686845, 11.374080234276164 ], [ 104.008333333130395, 11.329166666822005 ], [ 103.946535746075313, 11.359266492944585 ], [ 103.937853325756066, 11.505879550449947 ], [ 103.92083333324257, 11.537500000272757 ], [ 103.962500000048294, 11.575000000224975 ], [ 103.903458319756851, 11.619945949850205 ], [ 103.847575547801853, 11.592019992197208 ], [ 103.814953613412683, 11.632978481581517 ], [ 103.791666666549247, 11.633333333290921 ], [ 103.800000000256773, 11.679166666950152 ], [ 103.771186659107855, 11.714242214505475 ], [ 103.77535468218457, 11.781618753977057 ], [ 103.794118923522376, 11.804519992459518 ], [ 103.845833333338874, 11.804166666789797 ], [ 103.858333333324538, 11.824999999917452 ], [ 103.858333333322776, 11.845833333595351 ], [ 103.833994547407201, 11.859232923742695 ], [ 103.791666666565789, 11.929166666634785 ], [ 103.719845242077895, 11.928599378776141 ], [ 103.694982571247522, 11.961649068226222 ], [ 103.621684095843364, 11.992517598601751 ], [ 103.612103949423954, 12.019865587191248 ], [ 103.563315497288045, 12.046660020686659 ], [ 103.571230739901182, 12.055337863417435 ], [ 103.515770128232191, 12.103492906587348 ], [ 103.471970621966932, 12.112764655299998 ], [ 103.418622843615083, 12.09223395431377 ], [ 103.359052191986848, 12.167704603395066 ], [ 103.345124986211886, 12.215779283353584 ], [ 103.278229438046822, 12.24223395464503 ], [ 103.253316582529976, 12.232766045272797 ], [ 103.237499999823854, 12.254166666790013 ], [ 103.241910807372562, 12.225834486249141 ], [ 103.204412502725233, 12.229822116301079 ], [ 103.19035169798957, 12.20407545312878 ], [ 103.145190429912589, 12.178251139243457 ], [ 103.158976236805245, 12.150713772232621 ], [ 103.157466633929118, 12.132690429539821 ], [ 103.132690429926186, 12.137978786726308 ], [ 103.15064290364694, 12.108655124182235 ], [ 103.143801540638606, 12.083976236998467 ], [ 103.078247748621322, 12.136913893015446 ], [ 103.041666666933963, 12.137500000080422 ], [ 103.027248128169106, 12.166137016904429 ], [ 102.935075547815643, 12.146186658914587 ], [ 102.8866929794886, 12.23262769894427 ], [ 102.85035332596334, 12.255908881236678 ], [ 102.862499999727731, 12.291666666741719 ], [ 102.849432711921111, 12.331377156385315 ], [ 102.792020840267014, 12.368381754644361 ], [ 102.777885606654422, 12.46675516773945 ], [ 102.756243726734965, 12.454768541241151 ], [ 102.742486402559109, 12.467213609669727 ], [ 102.746476067481467, 12.490218776932636 ], [ 102.645833333146413, 12.587500000080581 ], [ 102.649137878414081, 12.611859469775652 ], [ 102.618622843504852, 12.617233954727851 ], [ 102.582445949781118, 12.653458319646347 ], [ 102.529166666437163, 12.65416666685411 ], [ 102.495833333338794, 12.758333333579458 ], [ 102.397201198877383, 12.771450805579434 ], [ 102.380115254551868, 12.758065796065011 ], [ 102.362139723110261, 12.80724521227819 ], [ 102.322575547995143, 12.808686659176942 ], [ 102.244906955514637, 12.903240288452139 ], [ 102.200000000000273, 12.929166666501374 ], [ 102.17546878410127, 12.972916666724529 ], [ 102.183900621045154, 12.995086670083367 ], [ 102.166666666902245, 13.041666666934134 ], [ 102.207482401619643, 13.059184095470641 ], [ 102.209135945599428, 13.090931532254444 ], [ 102.22995741106962, 13.111723836386432 ], [ 102.286780463172192, 13.121626790408925 ], [ 102.27083333305012, 13.174999999904003 ], [ 102.308333333579697, 13.204166666725655 ], [ 102.29640062141732, 13.248043823199453 ], [ 102.349999999807721, 13.299999999743648 ], [ 102.320266045672781, 13.35491333024828 ], [ 102.346186659190778, 13.430883449776104 ], [ 102.292022535633066, 13.518378533028795 ], [ 102.287486267138547, 13.581250678338677 ], [ 102.259104749832431, 13.592438083019033 ], [ 102.245190599195269, 13.643801710362936 ], [ 102.216666666838023, 13.679166666693618 ], [ 102.245833333117332, 13.691666666676269 ], [ 102.28276604521767, 13.743622843256333 ], [ 102.262499999920124, 13.775000000288969 ], [ 102.275120714017021, 13.819639417785595 ], [ 102.263329738839786, 13.836783854070291 ], [ 102.349999999807721, 13.850000000192836 ], [ 102.355126444626592, 13.874344041795837 ], [ 102.453260972737951, 13.925637648072041 ], [ 102.483334011476472, 13.989597235972667 ], [ 102.52291666672437, 14.020818752476032 ], [ 102.545833333274743, 14.02083333311441 ], [ 102.541099378596869, 14.039710490151037 ], [ 102.462500000240823, 14.037499999952161 ], [ 102.43276604554859, 14.098785061458443 ], [ 102.466099378679644, 14.131377156385383 ], [ 102.423290167965945, 14.157975260435137 ], [ 102.400937228863938, 14.145266045645201 ], [ 102.359041849954394, 14.153279283201755 ], [ 102.335543823213072, 14.12140062138991 ], [ 102.303178575319237, 14.124432712003681 ], [ 102.269337632757981, 14.149986775911088 ], [ 102.217579989776539, 14.150607639078373 ], [ 102.207937452430883, 14.182365586790866 ], [ 102.166666666902245, 14.204166666597359 ], [ 102.160047743085045, 14.1413133409892 ], [ 102.105908881402115, 14.150353325521337 ], [ 101.946521335406601, 14.246642727078552 ], [ 101.938067287651791, 14.289710489874949 ], [ 101.979166666565277, 14.350000000128603 ], [ 101.962499999727527, 14.375000000096406 ], [ 101.913361952124376, 14.354974365312387 ], [ 101.887499999823831, 14.400000000064381 ], [ 101.865170966372091, 14.370846557675463 ], [ 101.814710490123218, 14.350567287968943 ], [ 101.795833333082328, 14.362500000112504 ], [ 101.767654758212586, 14.341099378596709 ], [ 101.746010674140393, 14.344583468958888 ], [ 101.74166666687006, 14.30416666646903 ], [ 101.601137288380698, 14.433597819106467 ], [ 101.551214938652265, 14.433900621044813 ], [ 101.540920003366125, 14.420266045341691 ], [ 101.504166666607262, 14.43333333318617 ], [ 101.480908881098571, 14.462146674299561 ], [ 101.437146674161738, 14.439214409885267 ], [ 101.441666666677463, 14.383333333226631 ], [ 101.404166666725985, 14.366666666389051 ], [ 101.357559882498094, 14.440915595336605 ], [ 101.304938083060051, 14.438271416743362 ], [ 101.274432712173279, 14.532586669871478 ], [ 101.309246826421088, 14.566059027975598 ], [ 101.352424451788806, 14.579519992374003 ], [ 101.371400621470059, 14.617413329824274 ], [ 101.345266045237906, 14.659079996623063 ], [ 101.354733954641233, 14.680103895143134 ], [ 101.338123575600662, 14.692575751507832 ], [ 101.354525757032377, 14.764958021144537 ], [ 101.458333333528174, 14.808333333253358 ], [ 101.495819769966204, 14.843748982614954 ], [ 101.462854343211802, 14.897546725862526 ], [ 101.441137017214714, 14.978226047032706 ], [ 101.49166666660966, 15.012499999845602 ], [ 101.512499999708325, 15.058333333528253 ], [ 101.441137017214714, 15.08010728635162 ], [ 101.475567287644594, 15.138246663436917 ], [ 101.432766045679386, 15.213437228740361 ], [ 101.453599378804313, 15.247789509900826 ], [ 101.466099378789465, 15.348043823377338 ], [ 101.442634412837833, 15.371229214393679 ], [ 101.44521586095442, 15.414660135632232 ], [ 101.409049140097011, 15.438305494632118 ], [ 101.417284138726302, 15.483948940451683 ], [ 101.384018961599679, 15.505016750798234 ], [ 101.374432712051714, 15.540920003438316 ], [ 101.408333333596886, 15.733333333219207 ], [ 101.337499999949102, 15.750000000069065 ], [ 101.341198052512652, 15.768749999764111 ], [ 101.320266045267942, 15.794618394751808 ], [ 101.333900620967711, 15.877210490130324 ], [ 101.369617377480438, 15.913232591231065 ], [ 101.395833333614064, 16.008333333459461 ], [ 101.382715861030704, 16.046302625805936 ], [ 101.416666666712501, 16.075000000240948 ], [ 101.399080403519463, 16.115962388520529 ], [ 101.349999999931754, 16.137500000154716 ], [ 101.349237738907675, 16.165942043766222 ], [ 101.29583333313343, 16.179166666970218 ], [ 101.342369587954636, 16.257404242554912 ], [ 101.370833333030589, 16.266666666850028 ], [ 101.383686659279078, 16.352424452275727 ], [ 101.428813341010539, 16.426742214781996 ], [ 101.412499999845693, 16.566666666437925 ], [ 101.433900621394173, 16.631377156609403 ], [ 101.508333333459518, 16.675000000034572 ], [ 101.516666666575532, 16.72499999996586 ], [ 101.55000000027519, 16.729166666833066 ], [ 101.563117472247257, 16.750469292345542 ], [ 101.525617472293106, 16.806173028055298 ], [ 101.516086832414032, 16.87432081447264 ], [ 101.517313300500746, 16.894992404491006 ], [ 101.558600870869213, 16.892615085263515 ], [ 101.55360989063729, 16.927089775835441 ], [ 101.524094305921778, 16.986862182389871 ], [ 101.496451822659367, 16.996839396014423 ], [ 101.508686659126909, 17.047550455644114 ], [ 101.462499999777037, 17.095833333201767 ], [ 101.457766045648782, 17.177210489643244 ], [ 101.425637817656252, 17.200905693744289 ], [ 101.424999999828515, 17.279166666695517 ], [ 101.407396104446036, 17.283900621393968 ], [ 101.387499999880049, 17.254166666730043 ], [ 101.366666666768424, 17.274999999848092 ], [ 101.297201199108201, 17.232715691226588 ], [ 101.251367865465511, 17.267284308530407 ], [ 101.202160305634038, 17.229784308576029 ], [ 101.168622843634864, 17.236932712036321 ], [ 101.129221937118245, 17.210950046171945 ], [ 101.150567288040406, 17.128420003149245 ], [ 101.124392360933427, 16.93008015930269 ], [ 101.087500000292152, 16.908333333459495 ], [ 101.071494547471275, 16.909232923623108 ], [ 101.065753173854034, 16.932725694682631 ], [ 101.043408881063272, 16.929519992251983 ], [ 101.033333333493829, 16.945833333408132 ], [ 101.050567287614172, 16.975937228786051 ], [ 101.033333333493829, 17.012500000189107 ], [ 101.066666666575316, 17.045833333270423 ], [ 101.053813340919419, 17.072546386894317 ], [ 101.082980007733056, 17.130908881321943 ], [ 101.079166666558137, 17.162499999983083 ], [ 101.099185858654891, 17.163156806246661 ], [ 101.111882527661749, 17.18533986424643 ], [ 101.111943223777757, 17.239589945258729 ], [ 101.083333333425344, 17.283333333562723 ], [ 101.021627468350687, 17.296627468380962 ], [ 100.987499999811348, 17.349999999725298 ], [ 100.91249999991436, 17.33333333349384 ], [ 100.92535332559072, 17.372546217272827 ], [ 100.920368109925903, 17.452087911188528 ], [ 100.895833333064559, 17.462500000189152 ], [ 100.860786946886321, 17.449646674501423 ], [ 100.833333333150563, 17.466666666437959 ], [ 100.842135450402168, 17.49791666669995 ], [ 100.874332682301656, 17.52179497632892 ], [ 100.861932712127611, 17.550746663238783 ], [ 100.871400620982911, 17.573043823407886 ], [ 101.008333333528356, 17.699999999862712 ], [ 101.007482571250137, 17.732482401476318 ], [ 100.978599378834929, 17.759183417642589 ], [ 101.007766045648737, 17.781122843254309 ], [ 101.000967746526328, 17.816270785865981 ], [ 101.033333333493829, 17.829166666558194 ], [ 101.025850762043376, 17.903315734967236 ], [ 101.116077677186183, 17.938418070452656 ], [ 101.121186659050636, 18.002424451910542 ], [ 101.17881334076742, 18.060075548135615 ], [ 101.162853325849426, 18.131591118602671 ], [ 101.195833333270627, 18.216666666644073 ], [ 101.145833333339283, 18.254166666592539 ], [ 101.182598198701669, 18.340864054587826 ], [ 101.079166666558137, 18.383333333287624 ], [ 101.054166666592494, 18.441666666952983 ], [ 101.091059027823519, 18.480080159606928 ], [ 101.100000000295779, 18.520833333081157 ], [ 101.179166666420599, 18.56249999991428 ], [ 101.179166666420599, 18.612499999845568 ], [ 101.229166666970286, 18.62499999982856 ], [ 101.27047865126525, 18.689214409658803 ], [ 101.22148912232916, 18.725959947507931 ], [ 101.249390326421349, 18.775912814825517 ], [ 101.245833333201915, 18.895833333201836 ], [ 101.294933742978344, 18.93816121405672 ], [ 101.292517429116117, 18.982482570854359 ], [ 101.309548272093423, 19.004733954641267 ], [ 101.336876424308514, 19.000909084891987 ], [ 101.353698052497407, 19.0520833333008 ], [ 101.325814141010767, 19.067323472969065 ], [ 101.290666029143381, 19.120166354882656 ], [ 101.254166666936101, 19.124999999759723 ], [ 101.245480007535434, 19.185048929737547 ], [ 101.258333333184908, 19.229166666489562 ], [ 101.228599378530419, 19.299011908720104 ], [ 101.241666666953279, 19.329166666970366 ], [ 101.20496080182653, 19.350794135468789 ], [ 101.192284139000378, 19.381173197463113 ], [ 101.191049194414688, 19.398632134596255 ], [ 101.221450805814243, 19.425469123120195 ], [ 101.212500000120428, 19.4708333330301 ], [ 101.266064114057656, 19.471748012780552 ], [ 101.28703816747651, 19.568741183961833 ], [ 101.232586670054218, 19.604733954458538 ], [ 101.209548272215159, 19.604733954458538 ], [ 101.199107530203548, 19.579903327266777 ], [ 101.125000000240618, 19.570833333511132 ], [ 101.061004299417959, 19.620820108995645 ], [ 100.984246826268702, 19.629774136046649 ], [ 100.974999999828526, 19.645833333408234 ], [ 100.939660305405766, 19.625617642097097 ], [ 100.895096503203945, 19.633950975237781 ], [ 100.857709757494888, 19.571742587699305 ], [ 100.766666666369076, 19.487499999880129 ], [ 100.757413906707313, 19.515962388764137 ], [ 100.711520894128341, 19.541033935316591 ], [ 100.648287116400923, 19.558686659187686 ], [ 100.608970980901347, 19.55326097285689 ], [ 100.599280124507175, 19.479943339203373 ], [ 100.523257785401029, 19.404519992526218 ], [ 100.388637118954364, 19.396097988357099 ], [ 100.382436964337046, 19.379840427230249 ], [ 100.354827880946743, 19.38243374299384 ], [ 100.350000000069087, 19.362500000051853 ], [ 100.314506530695155, 19.366049025067582 ], [ 100.278697543846363, 19.332715691409305 ], [ 100.237500000223406, 19.35416666693601 ], [ 100.266666666437914, 19.26250000018905 ], [ 100.221748860460821, 19.267309400915394 ], [ 100.208356899421517, 19.226261562923639 ], [ 100.167517598645873, 19.22414906815311 ], [ 100.120833333511143, 19.195833333408075 ], [ 100.103599378804631, 19.084079996714536 ], [ 100.125567287644571, 19.061285061459103 ], [ 100.107803853299572, 19.003149074973578 ], [ 100.124646674105747, 18.960075548135706 ], [ 100.012499999914496, 18.891666666953142 ], [ 99.946535237679768, 18.946770562276868 ], [ 99.928458319664117, 18.986612616483228 ], [ 99.834184095549233, 19.000850762195626 ], [ 99.815767076286363, 19.053505452681634 ], [ 99.775000000240766, 19.05833333359675 ], [ 99.758333333390908, 19.137499999742772 ], [ 99.729166666570507, 19.166666666585911 ], [ 99.704519992282542, 19.243408881489415 ], [ 99.703599378743547, 19.339710489750018 ], [ 99.67916666662677, 19.458333333047449 ], [ 99.604166666729782, 19.499999999862951 ], [ 99.562146674242683, 19.414212883827872 ], [ 99.583900621454973, 19.3404517279684 ], [ 99.578599378895717, 19.293622843604339 ], [ 99.546400620952625, 19.252210489856168 ], [ 99.536932712097098, 19.209079996562195 ], [ 99.537144639913379, 19.089213731599557 ], [ 99.480093044433374, 19.06990695544539 ], [ 99.466552734525408, 19.038658650509433 ], [ 99.404166666386175, 18.999999999931617 ], [ 99.382766045435631, 19.060543823240721 ], [ 99.32952473957863, 19.105876329161163 ], [ 99.304180569094228, 19.185415988717011 ], [ 99.342019992175835, 19.2850462171358 ], [ 99.316666666506762, 19.350000000069201 ], [ 99.333900621211285, 19.386285061063063 ], [ 99.308333333390749, 19.429166666832998 ], [ 99.320818752694834, 19.460416666501999 ], [ 99.304166666523713, 19.483333333631492 ], [ 99.313067288086188, 19.526011657835227 ], [ 99.282433742688966, 19.566005452605737 ], [ 99.250926377862982, 19.557406955399927 ], [ 99.220833333511109, 19.524999999828424 ], [ 99.17979024233847, 19.55090925402601 ], [ 99.174080403488915, 19.578462388688195 ], [ 99.126956176531849, 19.575567287644503 ], [ 99.086862182694517, 19.649094305890856 ], [ 99.050899590177949, 19.671494547410305 ], [ 99.021400621044279, 19.72278950993126 ], [ 99.054166666867332, 19.866666666850165 ], [ 99.032766045313906, 19.971579996729588 ], [ 99.053704833757422, 20.002092149346538 ], [ 99.042233954717403, 20.039710489993354 ], [ 99.0702256943934, 20.067579990061631 ], [ 99.074999999965996, 20.100000000274918 ], [ 99.128267076027669, 20.100661214285026 ], [ 99.166666666712786, 20.133333333356404 ], [ 99.171400621409475, 20.193877156654992 ], [ 99.191666666678259, 20.212500000120542 ], [ 99.183900621394287, 20.23137715660954 ], [ 99.237499999742965, 20.27083333316773 ], [ 99.228599378774163, 20.292413330037903 ], [ 99.245209757266366, 20.313409084937689 ], [ 99.206258816190825, 20.341204833711458 ], [ 99.132586669871671, 20.333900620967654 ], [ 99.109025404317094, 20.317660183190867 ], [ 99.074999999965996, 20.370833333030134 ], [ 99.091666666815797, 20.404166666729793 ], [ 99.054166666867332, 20.449999999794159 ], [ 99.136932712036412, 20.506122843223807 ], [ 99.124735514511713, 20.532196044672332 ], [ 99.153510877640997, 20.546793280633267 ], [ 99.158333333596772, 20.570833333373571 ], [ 99.141666666746971, 20.637500000154716 ], [ 99.17119920499988, 20.667829725346337 ], [ 99.158333333596772, 20.69166666695304 ], [ 99.214953613548118, 20.717019992571693 ], [ 99.266005452544675, 20.709232923927573 ], [ 99.291666666541062, 20.783333333081714 ], [ 99.325000000213379, 20.779166666814206 ], [ 99.349311998213409, 20.82997606040675 ], [ 99.358407931993838, 20.865454101722889 ], [ 99.33750000022377, 20.891666666678304 ], [ 99.373257785157477, 20.887853325514413 ], [ 99.412500000120531, 20.908333333528333 ], [ 99.445819430662652, 21.002084011237855 ], [ 99.437500000086004, 21.012500000257944 ], [ 99.560757785477051, 20.987853325940705 ], [ 99.608686659248747, 21.035049099480489 ], [ 99.578287082208931, 21.103427802167346 ], [ 99.512499999983163, 21.125000000103228 ], [ 99.500000000000171, 21.216666666850244 ], [ 99.425000000103353, 21.258333333047347 ], [ 99.420833333236374, 21.291666666747005 ], [ 99.487146674333985, 21.422575547877102 ], [ 99.470480007505103, 21.489924452047319 ], [ 99.441666666953211, 21.504166666455092 ], [ 99.432624986569238, 21.549112616650746 ], [ 99.337854003999723, 21.622547064953039 ], [ 99.300000000275077, 21.708333333047392 ], [ 99.282586669688897, 21.71723395462584 ], [ 99.242881605568641, 21.699432712082171 ], [ 99.225639512895384, 21.721806844340733 ], [ 99.241364203763908, 21.844612121625005 ], [ 99.295833333407927, 21.862499999708348 ], [ 99.270833333442226, 21.908333333390829 ], [ 99.295833333407927, 21.92500000024063 ], [ 99.295215860832627, 21.947993469046594 ], [ 99.27846103238727, 21.99919297934008 ], [ 99.254728189891409, 22.018749999825445 ], [ 99.362500000189243, 22.075000000034606 ], [ 99.36666666643805, 22.104166666867059 ], [ 99.479166666901506, 22.137499999948716 ], [ 99.512499999983163, 22.183333333631253 ], [ 99.519982570869445, 22.274149237530992 ], [ 99.440860324258722, 22.282715860908809 ], [ 99.413302612561608, 22.29656846805193 ], [ 99.407533433835738, 22.320079888504949 ], [ 99.375000000172065, 22.320833333442351 ], [ 99.388202921293271, 22.374070909079705 ], [ 99.469982570930313, 22.400850762439234 ], [ 99.517019992510996, 22.514924451895354 ], [ 99.561649237668064, 22.534184095427577 ], [ 99.579166666764309, 22.579166666833089 ], [ 99.6735042994639, 22.591679890685214 ], [ 99.716666666575463, 22.624999999897227 ], [ 99.70416666660077, 22.754166666601236 ], [ 99.715801323655626, 22.795207383785907 ], [ 99.702951728196865, 22.791099378697822 ], [ 99.679519992313374, 22.822575547816257 ], [ 99.671186659172463, 22.889215766264101 ], [ 99.641666666678134, 22.933333333219139 ], [ 99.577453613106456, 22.924646674409985 ], [ 99.534037611053975, 22.967586263249245 ], [ 99.521400620983059, 22.989456176638498 ], [ 99.533686659340049, 23.06004638672681 ], [ 99.523290337470712, 23.078808593684073 ], [ 99.435786946429573, 23.082980007367894 ], [ 99.329166666489414, 23.145833333545568 ], [ 99.324362182405196, 23.113405693668426 ], [ 99.268622843208391, 23.11193271200591 ], [ 99.233940972207677, 23.09908650714641 ], [ 99.233333333493931, 23.083333333631458 ], [ 99.176214938800456, 23.091099378880983 ], [ 99.162499999845636, 23.108333333596931 ], [ 99.162853325544972, 23.173257785340411 ], [ 99.18749999981145, 23.191666666609706 ], [ 99.171400621409475, 23.214456176912449 ], [ 99.170833333579992, 23.262500000257887 ], [ 99.212499999776924, 23.308333333322196 ], [ 99.191666666678259, 23.329166666420861 ], [ 99.18749999981145, 23.391666666953142 ], [ 99.217327880687606, 23.444933742978208 ], [ 99.257445949974169, 23.471541849592427 ], [ 99.266666666575247, 23.499999999931617 ], [ 99.287500000292255, 23.504166666798426 ], [ 99.334184095609942, 23.603315734601665 ], [ 99.418408881397966, 23.662146674059841 ], [ 99.520833333098835, 23.700000000275054 ], [ 99.620833333579981, 23.683333333425253 ], [ 99.635783555586499, 23.700353325925562 ], [ 99.791043090848405, 23.709242587592939 ], [ 99.85833333325337, 23.787500000155035 ], [ 99.849634128126127, 23.840503438173585 ], [ 99.870266045389997, 23.864456176668796 ], [ 99.87083333323659, 23.900000000000318 ], [ 99.900000000068871, 23.920833333098983 ], [ 99.932980007489732, 23.898257785553483 ], [ 99.954733954701851, 23.827951727983759 ], [ 99.954520500842307, 23.760049268706041 ], [ 99.987146674273106, 23.731591118907033 ], [ 100.009184265139936, 23.667517598646157 ], [ 100.073043823225191, 23.667233954443077 ], [ 100.112104119082517, 23.684301079575448 ], [ 100.133333333493965, 23.720833333373719 ], [ 100.129914516793121, 23.757632785587532 ], [ 100.149999999725651, 23.758333333322184 ], [ 100.142438083362833, 23.807561916515908 ], [ 100.170215691607382, 23.839506530664664 ], [ 100.166049024762913, 23.878167046338604 ], [ 100.186799451975162, 23.884324306857138 ], [ 100.20035485142165, 23.960785420781576 ], [ 100.229166666509684, 23.974999999909016 ], [ 100.228813340828083, 23.989924452290893 ], [ 100.22048000768757, 24.05242445221495 ], [ 100.154166666592459, 24.12083333344242 ], [ 100.162499999708302, 24.195833333339237 ], [ 100.149362352301011, 24.224094306347411 ], [ 100.117019992328039, 24.243408881428763 ], [ 100.133333333493965, 24.291666666953176 ], [ 100.123504299463718, 24.316653442455902 ], [ 100.054166666729998, 24.325000000034663 ], [ 99.983333333081873, 24.262500000120554 ], [ 99.845833333270548, 24.270833333236169 ], [ 99.828315904192777, 24.200850762439131 ], [ 99.73090888156554, 24.170480007687672 ], [ 99.702424452154105, 24.133686659096384 ], [ 99.658333333528105, 24.129166666558262 ], [ 99.637499999811268, 24.200000000206387 ], [ 99.660289510128905, 24.220266045450842 ], [ 99.703029378406484, 24.220568847910954 ], [ 99.704635280887544, 24.252083333544306 ], [ 99.757525635030845, 24.325861951813636 ], [ 99.754827881129302, 24.378267076088321 ], [ 99.799376423988917, 24.384242418062797 ], [ 99.804166666455046, 24.429166666764331 ], [ 99.746400621257351, 24.468622843330309 ], [ 99.762485419554537, 24.489583333255155 ], [ 99.741313340873887, 24.577424452123523 ], [ 99.714583333163546, 24.595818752725677 ], [ 99.670833333511325, 24.591666666541073 ], [ 99.657645331536571, 24.645023939137104 ], [ 99.620833333579981, 24.675000000171906 ], [ 99.604628499262219, 24.714574516873938 ], [ 99.620098198960306, 24.757530721295211 ], [ 99.571991984228418, 24.81678059919426 ], [ 99.566666666781316, 24.87916666676449 ], [ 99.620215860984956, 24.927006361180361 ], [ 99.608950805585891, 24.992135959022733 ], [ 99.59166666674713, 24.999999999725446 ], [ 99.566666666781316, 24.979166666626782 ], [ 99.496572537014913, 25.017441473931854 ], [ 99.47087978768883, 25.051293945098053 ], [ 99.483900621028681, 25.07991333023574 ], [ 99.466099379032869, 25.123043822981742 ], [ 99.4031565350233, 25.174404229005859 ], [ 99.363415527259576, 25.175598483657154 ], [ 99.354166666455228, 25.195833333201904 ], [ 99.330093044615978, 25.186573621970126 ], [ 99.324051581566323, 25.166399298722467 ], [ 99.308333333390749, 25.170833333236203 ], [ 99.286540052477335, 25.274344041632162 ], [ 99.212013414242392, 25.332339477628352 ], [ 99.194892713801039, 25.320303853406301 ], [ 99.113238864723087, 25.342394849778202 ], [ 99.107665337292076, 25.397943115264241 ], [ 99.084001329446551, 25.422890218044586 ], [ 99.092334662587064, 25.448469374066178 ], [ 99.067293972683046, 25.492574903583829 ], [ 99.075567287827312, 25.534079996532 ], [ 99.054166666867332, 25.570833333304904 ], [ 99.058900620998259, 25.627210489764934 ], [ 99.095124986432268, 25.646720716688435 ], [ 99.104733954641119, 25.718877156502856 ], [ 99.149999999862985, 25.75416666679871 ], [ 99.057446967397198, 25.999227396452682 ], [ 99.00000000006122, 26.070833333247435 ], [ 99.024646674349185, 26.139242214462456 ], [ 99.020480007504887, 26.21004638672656 ], [ 99.037500000017701, 26.262499999845886 ], [ 99.037500000017701, 26.274999999828538 ], [ 99.01250000005183, 26.279166666695517 ], [ 99.00833333318468, 26.412500000258149 ], [ 99.020833333167673, 26.441666666472315 ], [ 99.003813340676231, 26.472546386955344 ], [ 99.017196316352511, 26.494892713557647 ], [ 99.012512885420335, 26.618750339311475 ], [ 99.033333333150495, 26.649999999931367 ], [ 99.029532538322826, 26.715503607764731 ], [ 99.016099379032823, 26.730103895265472 ], [ 99.02500000003505, 26.749999999793999 ], [ 99.007980007520132, 26.764213053449282 ], [ 99.033900621028693, 26.804913330326713 ], [ 99.011932712188582, 26.852210489917354 ], [ 98.975654432385966, 26.880144924625142 ], [ 98.982980007550395, 26.948257785127339 ], [ 98.962146674425412, 27.005879720004259 ], [ 98.983333333219207, 27.05 ], [ 98.970480007565754, 27.089213053601441 ], [ 98.983333333219207, 27.16249999984575 ], [ 98.96193271224945, 27.180103895265177 ], [ 98.987142266067622, 27.214211527405439 ], [ 98.988284979769219, 27.274223158020391 ], [ 99.008454047314046, 27.280360582161734 ], [ 99.008938259454112, 27.313352118724822 ], [ 98.994982570960758, 27.336649068138342 ], [ 98.920565117703688, 27.342467074785134 ], [ 98.924372016179234, 27.364583333590076 ], [ 98.90416666645541, 27.391666666403466 ], [ 98.916099378606418, 27.456377156578696 ], [ 98.89166666647219, 27.495833333133305 ], [ 98.908900621180862, 27.534079996836397 ], [ 98.883333333356575, 27.583333333631458 ], [ 98.917233954321546, 27.634079996714661 ], [ 98.833686659096543, 27.718408881032872 ], [ 98.874646674531959, 27.760757785233693 ], [ 98.846400621256919, 27.814456176790657 ], [ 98.849099053278394, 27.845177374939965 ], [ 98.820086669704267, 27.83276604543596 ], [ 98.800353325986293, 27.851742214569072 ], [ 98.787853326001652, 27.901742214508204 ], [ 98.795818752786488, 28.027083333331234 ], [ 98.754519992343774, 28.085075547983649 ], [ 98.767019992328358, 28.135046217318745 ], [ 98.757196214567671, 28.154431321802292 ], [ 98.720086669826003, 28.12859937877397 ], [ 98.692019992419489, 28.189242214706212 ], [ 98.711932712005762, 28.239456176820966 ], [ 98.711932712005762, 28.300746663300117 ], [ 98.7545325386576, 28.33449639217514 ], [ 98.688350931953892, 28.43835076221103 ], [ 98.679166666764274, 28.483333333631492 ], [ 98.621187506730905, 28.497546725741131 ], [ 98.632980007428785, 28.560757785355463 ], [ 98.608333333115979, 28.658333333390885 ], [ 98.575354512696038, 28.70171339234156 ], [ 98.567233954747621, 28.796579996942796 ], [ 98.550000000069019, 28.825000000034834 ], [ 98.554519992587245, 28.897546386742022 ], [ 98.525761243943407, 28.904858737472864 ], [ 98.515780300659628, 28.961203681041866 ], [ 98.495833333270696, 28.954166666730146 ], [ 98.483686658974591, 28.989242214827982 ], [ 98.479166666420667, 29.037499999742749 ], [ 98.500529479780369, 29.055107286321572 ], [ 98.491137186775177, 29.080107286290911 ], [ 98.503813340736883, 29.114924452078014 ], [ 98.479166666420667, 29.17083333330504 ], [ 98.460075547770259, 29.174646674471092 ], [ 98.438246663375992, 29.149432712325563 ], [ 98.417566257250655, 29.154827881068229 ], [ 98.396450975222365, 29.215298800999051 ], [ 98.354901801192341, 29.238302612530788 ], [ 98.345833333476719, 29.275000000034538 ], [ 98.317338561898339, 29.284230210869453 ], [ 98.324143303707842, 29.311834886480597 ], [ 98.272789510174675, 29.320266045268227 ], [ 98.233333333631265, 29.279166666901688 ], [ 98.22425503203084, 29.298969862423689 ], [ 98.159253099303953, 29.325582885681513 ], [ 98.079790242581907, 29.442575920885702 ], [ 98.079648674912505, 29.490667385687402 ], [ 98.050353325803826, 29.543408881550533 ], [ 98.049646674440453, 29.577424452062985 ], [ 98.004519992160738, 29.639242214584158 ], [ 98.004166666454978, 29.716666666919082 ], [ 97.950000000275054, 29.783333333081657 ], [ 97.913419596100653, 29.788082885666313 ], [ 97.863154771704387, 29.842639668602089 ], [ 97.853770616137638, 29.87403225368729 ], [ 97.834069485308021, 29.880047098612692 ], [ 97.850567287675062, 29.900746663543657 ], [ 97.83276604567925, 29.94657999663832 ], [ 97.854166666661229, 29.983333333425094 ], [ 97.821471150812215, 29.996739027204512 ], [ 97.805086263082046, 30.025582885925019 ], [ 97.813067287720742, 30.038246663376242 ], [ 97.790767076012401, 30.107672119221775 ], [ 97.762499999914439, 30.120833333236078 ], [ 97.74878506153533, 30.103599378561341 ], [ 97.693749321614007, 30.120819600497043 ], [ 97.681591118724214, 30.108686658944066 ], [ 97.630166286924577, 30.11188235828422 ], [ 97.612500000120463, 30.129166666970434 ], [ 97.612859090355698, 30.148291354741957 ], [ 97.645375569397345, 30.172912597889194 ], [ 97.563123575813734, 30.263409084876685 ], [ 97.583757188377319, 30.297011311711287 ], [ 97.509236992829699, 30.346478949708512 ], [ 97.500000000275008, 30.416666666575281 ], [ 97.445833333476685, 30.437500000292289 ], [ 97.419933742765522, 30.516005452423201 ], [ 97.392405530927817, 30.525879584148811 ], [ 97.395364719234806, 30.539583333559392 ], [ 97.357812161151628, 30.578255208563746 ], [ 97.31739128940518, 30.570071072215569 ], [ 97.28749999994875, 30.52500000017227 ], [ 97.261822849030011, 30.565771145492761 ], [ 97.208333333184783, 30.595833333202108 ], [ 97.225000000034981, 30.67083333309904 ], [ 97.19583333320179, 30.704166666798528 ], [ 97.097575547785823, 30.729519992434803 ], [ 97.082672119312974, 30.761600409685627 ], [ 97.038208346921863, 30.771720716475215 ], [ 96.974999999759689, 30.841666666609854 ], [ 96.922575547998861, 30.825353325468939 ], [ 96.902452595896364, 30.862146335000148 ], [ 96.879166666764206, 30.862499999708291 ], [ 96.84964667425777, 30.910757785233841 ], [ 96.770833333167786, 30.975000000172145 ], [ 96.740920003194731, 30.966099378606486 ], [ 96.707396104689906, 30.988067287994795 ], [ 96.65758667014552, 30.953599378621902 ], [ 96.625000000240618, 30.962500000189323 ], [ 96.593622843178196, 30.950567288040588 ], [ 96.55245530880228, 30.987141588008399 ], [ 96.509135945412311, 30.979901801040285 ], [ 96.504052734296636, 30.994674682662435 ], [ 96.474530877245797, 31.000617472141073 ], [ 96.445833333614189, 30.991666666403432 ], [ 96.466399299026648, 31.044884914569764 ], [ 96.511573621696073, 31.075926378137012 ], [ 96.491270785957056, 31.103198920135753 ], [ 96.464710490084713, 31.124432712112423 ], [ 96.383333333081737, 31.1291666668331 ], [ 96.367019992511075, 31.16424221437137 ], [ 96.374999999965894, 31.179166666764218 ], [ 96.337500000017201, 31.212499999845704 ], [ 96.280017598448069, 31.217517598220013 ], [ 96.269302876812446, 31.233293151918019 ], [ 96.253178575564277, 31.224432711990687 ], [ 96.162500000257978, 31.274999999760041 ], [ 96.103316582464743, 31.286932711914574 ], [ 96.055416361725406, 31.329344007531347 ], [ 96.058900621363534, 31.348785061291778 ], [ 96.037104119112996, 31.369865587208494 ], [ 95.987331644843778, 31.396501329127034 ], [ 95.946623738843243, 31.391426764862103 ], [ 95.945113966161784, 31.419741990751731 ], [ 95.915860324167284, 31.407715691500698 ], [ 95.898998006044337, 31.428504096167899 ], [ 95.854874335448301, 31.425779215277942 ], [ 95.853461032174096, 31.445026313044139 ], [ 95.809220716733876, 31.463208516573786 ], [ 95.808798556949398, 31.506254577910909 ], [ 95.837500000086266, 31.516666666918752 ], [ 95.82337273518948, 31.541640048735303 ], [ 95.61371493875464, 31.536932712158261 ], [ 95.599012926143416, 31.578543429680167 ], [ 95.53839959061952, 31.567327880870664 ], [ 95.55786471873256, 31.602083333361634 ], [ 95.500358073008499, 31.6975431652765 ], [ 95.51193271206688, 31.760543823118553 ], [ 95.458988105043034, 31.805139668952506 ], [ 95.411932712188445, 31.902210489795777 ], [ 95.382522243730875, 31.928159925592411 ], [ 95.343408881428445, 31.93714667439491 ], [ 95.302083333604855, 31.925014580766003 ], [ 95.20833333345962, 31.975000000034811 ], [ 95.149999999794147, 31.954166666936146 ], [ 95.10242445227567, 31.982980007489971 ], [ 95.036753336776826, 31.982766045314008 ], [ 95.008900620998475, 32.022789510296604 ], [ 95.004166666867377, 32.0666666667816 ], [ 94.937500000086231, 32.074999999897273 ], [ 94.92410312239349, 32.090994601682496 ], [ 94.896494547318866, 32.084232923775119 ], [ 94.904368082827773, 32.136281331220971 ], [ 94.891666666403523, 32.145833333545397 ], [ 94.847916666760739, 32.137968614119131 ], [ 94.80489061160506, 32.153432549250454 ], [ 94.786575995572434, 32.105341254252608 ], [ 94.749999999725446, 32.133333333562746 ], [ 94.680303785630826, 32.095568678380857 ], [ 94.642517598249981, 32.121684265064118 ], [ 94.662486606173161, 32.164582994164505 ], [ 94.640491570344579, 32.20457933215863 ], [ 94.610543823301271, 32.179733954488711 ], [ 94.591666666816025, 32.183333333493863 ], [ 94.568877156502822, 32.154733954519486 ], [ 94.537500000015541, 32.166666666646904 ], [ 94.528481038325197, 32.274219767359909 ], [ 94.513239203356648, 32.275774807559799 ], [ 94.511770121157838, 32.294937811880573 ], [ 94.496708848493768, 32.291416422711507 ], [ 94.486651781043804, 32.324316745570286 ], [ 94.438588290606219, 32.342027112922153 ], [ 94.432645331323499, 32.374190605890135 ], [ 94.399263339547701, 32.383950805799032 ], [ 94.344472249194553, 32.362533908294381 ], [ 94.295833333476594, 32.412500000051807 ], [ 94.227084011390161, 32.437486097461374 ], [ 94.192575920946524, 32.413123575692168 ], [ 94.149999999935744, 32.445833333145345 ], [ 94.182688903846383, 32.459237331646193 ], [ 94.174999999897125, 32.491666666776325 ], [ 94.192403496629197, 32.515937296695313 ], [ 94.254748196133505, 32.521488783086795 ], [ 94.29083218033378, 32.495589192890236 ], [ 94.314544338528947, 32.532677883575445 ], [ 94.35024583619844, 32.538155449866451 ], [ 94.362745836183194, 32.524344550386047 ], [ 94.383333333356575, 32.541666666747119 ], [ 94.370833333373753, 32.566666666712933 ], [ 94.39166666647219, 32.604166666661399 ], [ 94.437030876987023, 32.566049194140987 ], [ 94.462500000107013, 32.574999999848103 ], [ 94.464242214554076, 32.61214667412105 ], [ 94.537500000017531, 32.604166666661399 ], [ 94.563545735415801, 32.632639905998928 ], [ 94.590888807365218, 32.634040323898944 ], [ 94.604166666798676, 32.666666666575566 ], [ 94.574357266017273, 32.711052110597791 ], [ 94.607562764257352, 32.717386881382197 ], [ 94.608976067531444, 32.731885443772455 ], [ 94.557586669962973, 32.750567287991089 ], [ 94.509270562273514, 32.724432712306907 ], [ 94.481085035359683, 32.721362982831863 ], [ 94.461559211081351, 32.738029649611519 ], [ 94.43750000011562, 32.720833333373548 ], [ 94.359164767579443, 32.754827541959173 ], [ 94.361894904172289, 32.786171128820286 ], [ 94.379771762516725, 32.79867112880487 ], [ 94.350669352272178, 32.830042860283811 ], [ 94.367233954382414, 32.871579996863488 ], [ 94.350451659888449, 32.893747287254541 ], [ 94.379166666489539, 32.920833333098813 ], [ 94.395833333339397, 32.974999999897477 ], [ 94.321781921333297, 33.012767537348509 ], [ 94.312499999741476, 32.999999999878753 ], [ 94.261581929487249, 33.016077677369253 ], [ 94.189456176516785, 33.004733954580217 ], [ 94.10221048967378, 33.057766045599635 ], [ 94.072792222837165, 33.046316867492862 ], [ 94.07083333318667, 33.024999999848148 ], [ 93.980079989924604, 33.054774305394176 ], [ 93.950000000166938, 33.079166666626918 ], [ 93.962146674437065, 33.110757785294936 ], [ 93.936857265746539, 33.172968376996494 ], [ 93.924678209250771, 33.188142734101746 ], [ 93.884078301292902, 33.18853013777499 ], [ 93.858068678194911, 33.265529547963524 ], [ 93.897907850665774, 33.295371500677788 ], [ 93.928346760901661, 33.292438591934342 ], [ 93.916666666506558, 33.350000000000307 ], [ 93.939242214645162, 33.357980007459446 ], [ 94.012500000120497, 33.291666666913727 ], [ 94.043622843543687, 33.320266045329276 ], [ 94.083333333150506, 33.325000000034834 ], [ 94.07916666686242, 33.350000000000307 ], [ 94.098287116157564, 33.354519992477151 ], [ 94.13924221440152, 33.325353325712342 ], [ 94.182586669871682, 33.342233954668188 ], [ 94.228259107783856, 33.317574225749752 ], [ 94.242470635371319, 33.395185343488492 ], [ 94.279166666626736, 33.399999999931651 ], [ 94.25833333348919, 33.420833333030146 ], [ 94.25833333348919, 33.533333333454834 ], [ 94.229524230897312, 33.560046386544229 ], [ 94.234184265048611, 33.574149068214524 ], [ 94.279166666626736, 33.637500000184332 ], [ 94.365725877548527, 33.616137186817468 ], [ 94.39166666647219, 33.629166666489539 ], [ 94.386882358326091, 33.655005052225079 ], [ 94.420117696034367, 33.688305494327381 ], [ 94.438235134679701, 33.770030721231137 ], [ 94.482596673096054, 33.804784308618252 ], [ 94.525000000034879, 33.795833333133146 ], [ 94.542476230317675, 33.820145331655112 ], [ 94.583333333081669, 33.820833333099017 ], [ 94.660757785416536, 33.79548000747468 ], [ 94.699205864908947, 33.757539198292989 ], [ 94.708333333488838, 33.716666666369349 ], [ 94.825000000201499, 33.67083333330504 ], [ 94.820225863892972, 33.634246656780931 ], [ 94.799517991719199, 33.619834052391525 ], [ 94.812500000218506, 33.562499999708621 ], [ 94.88995361333474, 33.579519992252131 ], [ 94.954166666856281, 33.562499999741817 ], [ 94.986527167407701, 33.574345228372465 ], [ 95.024999999966212, 33.529166666626907 ], [ 95.131591118541678, 33.582980007684341 ], [ 95.215729438012943, 33.436932712036025 ], [ 95.234504530295794, 33.45456390368264 ], [ 95.291126166565732, 33.411894904366591 ], [ 95.311683824219415, 33.438105095901221 ], [ 95.352172851400553, 33.424394904351516 ], [ 95.484321085452621, 33.342378912986248 ], [ 95.528398302045105, 33.344861687531989 ], [ 95.56296929226977, 33.299382358189519 ], [ 95.619465467538646, 33.303549024534959 ], [ 95.629166666626986, 33.325000000034834 ], [ 95.660757785294663, 33.304519992537848 ], [ 95.690678575153413, 33.338067287872946 ], [ 95.742375013656215, 33.284220716703715 ], [ 95.790660942817738, 33.282732476198134 ], [ 95.791666666403387, 33.250000000098453 ], [ 95.813387383529118, 33.229875182915919 ], [ 95.931250000187219, 33.175628153443085 ], [ 95.93825615785812, 33.199243842230658 ], [ 95.974999999908903, 33.212500000118666 ], [ 95.979166666764343, 33.229166666420667 ], [ 96.073257785340331, 33.232980007611218 ], [ 96.137500000252885, 33.183333333356529 ], [ 96.146188185075857, 33.155881076426795 ], [ 96.210075547770543, 33.096186659142177 ], [ 96.261575656360492, 33.070182291747642 ], [ 96.258333333253802, 33.054166666661274 ], [ 96.329166666862477, 33.024999999828594 ], [ 96.377424451819195, 33.049646674136454 ], [ 96.402451069913354, 33.024646674166718 ], [ 96.42499999989758, 33.029166666695801 ], [ 96.433956909243705, 32.980075751157813 ], [ 96.472907850319075, 32.96296183246352 ], [ 96.542603895189018, 32.957766045222741 ], [ 96.65661960155694, 32.991312662887651 ], [ 96.659236822964715, 32.963145616111376 ], [ 96.700567287979936, 32.921845160368775 ], [ 96.692233954291055, 32.885289510293035 ], [ 96.709184265273564, 32.85918409545809 ], [ 96.800264655201659, 32.819696045003866 ], [ 96.800000000000239, 32.787500000115415 ], [ 96.891083781026907, 32.736580403790015 ], [ 96.899999999863041, 32.725000000201646 ], [ 96.883333333548819, 32.69166666655542 ], [ 96.899999999863041, 32.67499999973063 ], [ 97.055534532443403, 32.586882527764942 ], [ 97.107864040917377, 32.604784139179685 ], [ 97.162500000120644, 32.574999999828606 ], [ 97.257750447429885, 32.574080403489063 ], [ 97.271732923802347, 32.550661213919966 ], [ 97.383333333523296, 32.499999999931788 ], [ 97.350850762134712, 32.469982570869774 ], [ 97.349253336700656, 32.432766045313656 ], [ 97.368877156381018, 32.436932712158466 ], [ 97.400911797249876, 32.404780748275698 ], [ 97.474107530355752, 32.386763170136362 ], [ 97.485289510037887, 32.371400621104897 ], [ 97.519618394416966, 32.370266045390281 ], [ 97.52500000020143, 32.383333333219127 ], [ 97.565694851534602, 32.37423163538358 ], [ 97.681122843498144, 32.279733954367146 ], [ 97.713712564969683, 32.291741265164887 ], [ 97.76572943814665, 32.245266045542451 ], [ 97.815688408592166, 32.241012234212235 ], [ 97.840920003449924, 32.216099378728472 ], [ 97.878315904375484, 32.219982571124888 ], [ 97.896732923638353, 32.188161214312231 ], [ 97.966931321726406, 32.148862711623224 ], [ 97.954166666523861, 32.091666666747415 ], [ 97.902006530843892, 32.082715691226667 ], [ 97.89502478718282, 32.05902760843162 ], [ 97.846759711578727, 32.057406955472572 ], [ 97.842284139194874, 31.993673197447833 ], [ 97.861882527783507, 31.956173197493854 ], [ 97.820215860984888, 31.919833713210096 ], [ 97.867284139164269, 31.850469122785341 ], [ 97.850819227306033, 31.824382358341609 ], [ 97.838470119961471, 31.83374837233157 ], [ 97.829519992374173, 31.801742214690762 ], [ 97.870303683979728, 31.718914964519399 ], [ 97.867618136833812, 31.671480984098878 ], [ 97.903813340919271, 31.65242445222691 ], [ 97.912499999708189, 31.608333333047597 ], [ 97.854166666661399, 31.57916666679364 ], [ 97.84999999979425, 31.491666666914057 ], [ 97.815879313047276, 31.500605095569767 ], [ 97.775940958689375, 31.482862514782255 ], [ 97.739672851731882, 31.520228237628942 ], [ 97.700000000000273, 31.508333333184964 ], [ 97.724999999969839, 31.42916666644885 ], [ 97.691666666810931, 31.395833333338942 ], [ 97.725412665527756, 31.33034176296394 ], [ 97.708900620998577, 31.318877156758219 ], [ 97.700644599007717, 31.271737162192437 ], [ 97.762499999914439, 31.237499999811519 ], [ 97.763399590601011, 31.213161214403499 ], [ 97.811776733466331, 31.207552930909856 ], [ 97.817876180103326, 31.179211595211655 ], [ 97.841235351676573, 31.182417297093764 ], [ 97.858963690899145, 31.165258958756738 ], [ 97.854938083359229, 31.138271416652401 ], [ 97.879166666626872, 31.133333333081907 ], [ 97.863399590478878, 31.067327880931373 ], [ 97.924432711868974, 30.998043823450473 ], [ 97.908686659126943, 30.943408881440121 ], [ 97.95494333899029, 30.850719875553921 ], [ 98.035543823465389, 30.841099378758997 ], [ 98.080381605340165, 30.795266045614767 ], [ 98.178029547875724, 30.791402180731779 ], [ 98.190816582662649, 30.817233954504445 ], [ 98.204166666798812, 30.812499999777174 ], [ 98.2208333330301, 30.779166666695687 ], [ 98.204789055446099, 30.773997666832202 ], [ 98.203599378877641, 30.753420002996904 ], [ 98.22556728776658, 30.705381605187881 ], [ 98.208333333047449, 30.687499999948727 ], [ 98.276956176969918, 30.638067287873014 ], [ 98.299999999794238, 30.637500000017553 ], [ 98.31249999977689, 30.600000000069087 ], [ 98.33264685750089, 30.603112114820419 ], [ 98.378770785850804, 30.561532253897155 ], [ 98.387854682180546, 30.53088175445555 ], [ 98.42973395436718, 30.507118394371389 ], [ 98.425567288021739, 30.472789509991799 ], [ 98.439456176821125, 30.454733954397909 ], [ 98.508333333253347, 30.424999999691124 ], [ 98.491099378576109, 30.401011826999877 ], [ 98.503599378560921, 30.347789510144537 ], [ 98.482766045435767, 30.321579996730009 ], [ 98.52109798844856, 30.223862711726269 ], [ 98.475355699253782, 30.202454630377758 ], [ 98.478599378591525, 30.151956176684223 ], [ 98.458793131503228, 30.118761528910795 ], [ 98.479733954306312, 30.098785061169679 ], [ 98.496097988478994, 30.005303955233558 ], [ 98.442881605446701, 29.999432712337409 ], [ 98.419666714022526, 30.025379435155912 ], [ 98.404166666524077, 29.987500000253192 ], [ 98.474445936181439, 29.902093675390574 ], [ 98.458994547364455, 29.867566256885652 ], [ 98.483686658975159, 29.826712883751838 ], [ 98.466666666438186, 29.787499999948864 ], [ 98.508333333253347, 29.700000000069224 ], [ 98.466666666438186, 29.662500000081479 ], [ 98.491197882842187, 29.593749999916838 ], [ 98.487500000115972, 29.55416666652377 ], [ 98.569982401625168, 29.478315735070453 ], [ 98.583686658852855, 29.376742214356057 ], [ 98.604166666828064, 29.34999999993147 ], [ 98.629166666793537, 29.354166666759227 ], [ 98.658333333047437, 29.279166666862238 ], [ 98.712764655064746, 29.253029547918061 ], [ 98.699999999862939, 29.208333333253563 ], [ 98.728315734632133, 29.186649068077372 ], [ 98.73785332551455, 29.126715765791914 ], [ 98.716666666712797, 29.091666666541244 ], [ 98.734184265048611, 29.038350762028472 ], [ 98.787499999742749, 28.999999999794454 ], [ 98.811932711884424, 28.956377156396286 ], [ 98.82977701833039, 28.821831257875317 ], [ 98.847789510022551, 28.80473395471364 ], [ 98.909079996501475, 28.803599378999195 ], [ 98.925000000132968, 28.825000000034834 ], [ 98.958900621120165, 28.800746663239408 ], [ 98.958971150522927, 28.750905693927336 ], [ 98.979733954744461, 28.740451728029598 ], [ 98.970480007565754, 28.705879720126063 ], [ 98.987486097522662, 28.681250678051981 ], [ 98.987853325758181, 28.518379719806489 ], [ 98.974998643802678, 28.493734063197223 ], [ 99.017019992522478, 28.472549438251406 ], [ 99.041666666845231, 28.416666666810727 ], [ 99.037500000017701, 28.395833333133339 ], [ 98.958333333253904, 28.354166666896731 ], [ 98.959184095518765, 28.334184095488695 ], [ 98.975567287949048, 28.327951727983759 ], [ 98.97561747211023, 28.206173027872239 ], [ 99.013205634229223, 28.146640353694693 ], [ 99.054166666828053, 28.137499999742715 ], [ 99.045240614158104, 28.09258388956755 ], [ 99.008931816767017, 28.040751139098404 ], [ 99.01250000005183, 28.004166666759545 ], [ 99.074112616498667, 27.961791483518255 ], [ 99.087499999948818, 27.908333333184999 ], [ 99.132980007367962, 27.881591118785252 ], [ 99.120480007383151, 27.814212883961602 ], [ 99.137146674212374, 27.768408881470634 ], [ 99.120266045207359, 27.678420003404426 ], [ 99.147789510205314, 27.654733954519543 ], [ 99.174999999828458, 27.666666666644232 ], [ 99.187865871828933, 27.653003438413634 ], [ 99.178599378835031, 27.609079996744924 ], [ 99.195833333472422, 27.566666666719414 ], [ 99.183333333523194, 27.524999999965928 ], [ 99.195833333506357, 27.462500000051989 ], [ 99.237146674090468, 27.464924451895342 ], [ 99.22501322422147, 27.438995700399801 ], [ 99.275000000269984, 27.41666666636911 ], [ 99.274735514329279, 27.342803785433262 ], [ 99.332482571097898, 27.274149068214456 ], [ 99.345833333339215, 27.233333333454596 ], [ 99.38090888139476, 27.187853325514652 ], [ 99.408333333253552, 27.208333333489122 ], [ 99.430134413096823, 27.154562717197678 ], [ 99.457766045344158, 27.13554382327095 ], [ 99.445052761303373, 27.10904032400191 ], [ 99.417444525837254, 27.107626342657113 ], [ 99.39583333327073, 27.062499999983288 ], [ 99.436892361295179, 27.053253173564769 ], [ 99.437500000086004, 27.037500000017417 ], [ 99.47009819859494, 27.024197387576351 ], [ 99.538714938857936, 26.8660993786674 ], [ 99.574999999897329, 26.870833333373639 ], [ 99.570266045207404, 26.804913330277714 ], [ 99.600802612332984, 26.704901801265351 ], [ 99.681623670927422, 26.670475260494868 ], [ 99.708333333445239, 26.624999999970157 ], [ 99.764588080490228, 26.638102891798439 ], [ 99.779947238423063, 26.661818779701889 ], [ 99.844953748733417, 26.663745795475336 ], [ 99.934319729273739, 26.761782836983684 ], [ 99.969873046831822, 26.754974365015812 ], [ 99.980166286802955, 26.779784139149399 ], [ 100.025074598579238, 26.769620767958543 ], [ 100.034184265109673, 26.709184095774219 ], [ 100.055908881169898, 26.732980007806134 ], [ 100.120833333471694, 26.72083333354044 ], [ 100.074999999828663, 26.520833333236453 ], [ 100.054980807763684, 26.520176526985665 ], [ 100.024999999897148, 26.479166666420781 ], [ 100.046400621390546, 26.454913330155932 ], [ 100.041402011537059, 26.434470621548599 ], [ 100.095124817005455, 26.432445949882947 ], [ 100.100567287675005, 26.417413330201612 ], [ 100.09166531043752, 26.289567396341397 ], [ 100.112499999776958, 26.266666666712865 ], [ 100.103561571104194, 26.242454020349442 ], [ 100.120833333471694, 26.216666666742299 ], [ 100.120479838005565, 26.180880737092821 ], [ 100.1007766722675, 26.174280124172583 ], [ 100.104524739681779, 26.118376498645432 ], [ 100.128813340949989, 26.094091118769825 ], [ 100.121302117033565, 26.06458333348013 ], [ 100.145368279528384, 26.03958791109369 ], [ 100.142311096318508, 26.017570495663961 ], [ 100.166666666575452, 26.008333333322128 ], [ 100.162853325921901, 25.993408881440473 ], [ 100.18806728806743, 25.97378506126131 ], [ 100.186649916073804, 25.941099378698141 ], [ 100.228267076332031, 25.941005452514503 ], [ 100.233333333356597, 25.929166666558331 ], [ 100.304166666418553, 25.96250000017983 ], [ 100.321476067649655, 25.950633748236612 ], [ 100.299164157551161, 25.884098137731371 ], [ 100.278549024626159, 25.870364210340824 ], [ 100.304166666386379, 25.833333333523228 ], [ 100.279774135925152, 25.824086676870991 ], [ 100.286932712230737, 25.759079996805895 ], [ 100.320172119206404, 25.736600409727885 ], [ 100.342881605325033, 25.686932712158011 ], [ 100.37403835694937, 25.690999518447427 ], [ 100.392579989788089, 25.658940802677932 ], [ 100.408333333116047, 25.658333333184885 ], [ 100.441666666763297, 25.59583333327447 ], [ 100.425354173575613, 25.581619771330168 ], [ 100.432766045253061, 25.543622843665446 ], [ 100.371447584409793, 25.474088372098322 ], [ 100.361570739656145, 25.438202921475693 ], [ 100.341666666953245, 25.433333333493977 ], [ 100.307539198403276, 25.499205864836483 ], [ 100.27500000017227, 25.520833333373787 ], [ 100.184332614343589, 25.542148675019291 ], [ 100.169739617454127, 25.525605265525769 ], [ 100.091666666678464, 25.520833333373787 ], [ 100.091137186470917, 25.430107455607754 ], [ 100.141666666609638, 25.412499999776969 ], [ 100.15035569940585, 25.364212205586398 ], [ 100.179166666558274, 25.354166666730009 ], [ 100.175461832813596, 25.322907850380261 ], [ 100.204733954397682, 25.294618394691156 ], [ 100.187500000292289, 25.25 ], [ 100.216666666506796, 25.241666666884385 ], [ 100.245480007657136, 25.164924451956324 ], [ 100.233155992393733, 25.138749864457111 ], [ 100.195833333407961, 25.137500000154716 ], [ 100.225850931725518, 25.046684095655792 ], [ 100.281122843619642, 25.000567287614274 ], [ 100.329166666970423, 24.999999999725446 ], [ 100.316308593882184, 24.968376329145997 ], [ 100.292019992663029, 24.960757785355668 ], [ 100.304166666386379, 24.90833333359717 ], [ 100.400735982515869, 24.83825785320704 ], [ 100.444850328140319, 24.824016995014972 ], [ 100.44999999993172, 24.808333333116195 ], [ 100.483333333631379, 24.800000000000352 ], [ 100.513205634046699, 24.72580702032559 ], [ 100.632980007733238, 24.564924452139053 ], [ 100.629822624908343, 24.534293280709733 ], [ 100.661876424034574, 24.519924248538473 ], [ 100.671186659050761, 24.460075548013947 ], [ 100.691009860781037, 24.436685858853025 ], [ 100.692250908993856, 24.38435295928042 ], [ 100.733333333287931, 24.345833333133328 ], [ 100.777424451940931, 24.353813341163345 ], [ 100.800567287918682, 24.334079996897174 ], [ 100.792403327007833, 24.296725803135701 ], [ 100.820266045328992, 24.281377156609324 ], [ 100.830054049798321, 24.234041680503935 ], [ 100.867271593082023, 24.192454020154912 ], [ 100.863319905593301, 24.167438422331486 ], [ 100.887499999948886, 24.162500000257921 ], [ 100.900911797371748, 24.071447414910324 ], [ 100.927210490130562, 24.070266045633616 ], [ 100.941313341056741, 24.05242445221495 ], [ 100.945833333614189, 23.954166666798642 ], [ 100.963067287720662, 23.938488091356817 ], [ 100.955359226074279, 23.908555094243809 ], [ 101.016666666644198, 23.866666666918832 ], [ 100.995833333545534, 23.766666666438027 ], [ 101.021097818888222, 23.744696214400278 ], [ 101.013067287659794, 23.70612284316303 ], [ 101.02916666662702, 23.683333333425423 ], [ 100.991666666678327, 23.624999999759893 ], [ 101.020215860924168, 23.597993469229436 ], [ 101.0121466741208, 23.564953782865018 ], [ 101.034184095731916, 23.488350932014782 ], [ 101.066313340904571, 23.439924451865124 ], [ 101.079166666558137, 23.370833333236305 ], [ 101.116313340843305, 23.323257785157637 ], [ 101.11193271237147, 23.29778950996149 ], [ 101.087500000292323, 23.279166666489516 ], [ 101.112500000257796, 23.137499999811212 ], [ 101.136838785609029, 23.132433742810974 ], [ 101.142233954352093, 23.113246663589393 ], [ 101.13005404998114, 23.092375013400783 ], [ 101.200261094919654, 23.092426554350084 ], [ 101.204166666386243, 23.129166666695596 ], [ 101.225000000103421, 23.12499999982856 ], [ 101.258333333184908, 23.070833333030066 ], [ 101.224939982095634, 23.052609592224428 ], [ 101.299149237744416, 22.990815904603721 ], [ 101.308333333116082, 22.97500000003447 ], [ 101.296801079864679, 22.958729383725768 ], [ 101.354166666798562, 22.920833333236317 ], [ 101.354166666798562, 22.891666666403637 ], [ 101.333333333081725, 22.875000000172179 ], [ 101.357864718793508, 22.835416666776041 ], [ 101.354733954641233, 22.793622843178241 ], [ 101.392517428994381, 22.734184095731962 ], [ 101.42823757610654, 22.71596374494311 ], [ 101.456122843284732, 22.67556728770569 ], [ 101.512499999708325, 22.683333333562587 ], [ 101.536838785670284, 22.65743374284159 ], [ 101.508333333459689, 22.612499999914405 ], [ 101.546608140745946, 22.563239203296064 ], [ 101.624850124692102, 22.523790486586108 ], [ 101.670833333236089, 22.475000000103307 ], [ 101.71042141401108, 22.471436225140337 ], [ 101.730216132513078, 22.495152791114378 ], [ 101.78246832978823, 22.503501044536961 ], [ 101.792480807840036, 22.483990139494097 ], [ 101.812499999914394, 22.483333333219491 ], [ 101.858333333596875, 22.391666666472304 ], [ 101.891666666678532, 22.387500000223667 ], [ 101.914952256760103, 22.44201999266329 ], [ 101.954166666592528, 22.445833333270627 ], [ 101.962499999741567, 22.42916666644885 ], [ 101.990649244549218, 22.429753621427722 ], [ 102.022789509992037, 22.457766045405151 ], [ 102.045833333339317, 22.458333333253449 ], [ 102.124080572988589, 22.436795722194063 ], [ 102.192233954717153, 22.330103895143566 ], [ 102.18452572271849, 22.304388427703884 ], [ 102.23333333308193, 22.283333333494056 ], [ 102.279858737442339, 22.209326849928289 ], [ 102.323257785401097, 22.203813341041382 ], [ 102.3374999998112, 22.166666666781396 ], [ 102.360757785355588, 22.166313341087175 ], [ 102.383333333494079, 22.12916666683293 ], [ 102.429166666558217, 22.112499999983072 ], [ 102.441402011354, 22.076137288225141 ], [ 102.484184264866144, 22.042517429176598 ], [ 102.516666666438198, 22.037500000086084 ], [ 102.487854682119632, 21.989215766263897 ], [ 102.617309400793658, 21.909092034012417 ], [ 102.609049648595715, 21.871872117857606 ], [ 102.646083577487218, 21.857457818168314 ], [ 102.645833333133282, 21.80416666666116 ], [ 102.662146674303642, 21.794091118526353 ], [ 102.645480007474589, 21.735046217440413 ], [ 102.674646674288454, 21.643408881306755 ], [ 102.666313341147713, 21.547575547724932 ], [ 102.650000000000489, 21.529166666448816 ], [ 102.688067287812203, 21.463437228801467 ], [ 102.679166666832941, 21.391666666609638 ], [ 102.643673197448038, 21.391049024793574 ], [ 102.608333333184646, 21.345833333545499 ], [ 102.613409254254407, 21.304790242368995 ], [ 102.636509535194079, 21.30354749885646 ], [ 102.645833333133282, 21.270833333030168 ], [ 102.706620449237164, 21.287853325575327 ], [ 102.741666666746937, 21.279166666764354 ], [ 102.77083333357956, 21.329166666695698 ], [ 102.762499999845772, 21.354166666661342 ], [ 102.808333333528424, 21.395833333476844 ], [ 102.857373046603641, 21.400807698658639 ], [ 102.879969279025204, 21.445098198808353 ], [ 102.910786607521914, 21.442021179220831 ], [ 102.962500000189209, 21.483333333356654 ], [ 103.023257785644773, 21.492019992176097 ], [ 103.059232923927539, 21.586838786035287 ], [ 103.091666666884464, 21.612500000051909 ], [ 103.108333333144401, 21.612500000044975 ], [ 103.112499999984209, 21.579166666950186 ], [ 103.166099378900583, 21.510543823019873 ], [ 103.187499999903537, 21.429166666579476 ], [ 103.153813341085936, 21.335046217360514 ], [ 103.191006808925238, 21.271836005157411 ], [ 103.100000000000307, 21.216666666837796 ], [ 103.129166666821959, 21.16250000004834 ], [ 103.174999999903832, 21.154166666918115 ], [ 103.178811984809727, 21.130880059098672 ], [ 103.162146674244582, 21.118381076298817 ], [ 103.166313341072339, 21.072575547774136 ], [ 103.140529378074916, 21.028902181100989 ], [ 103.122789510277244, 21.032766045493702 ], [ 103.058333333194753, 20.99583333340297 ], [ 103.113154432300348, 20.90097825793174 ], [ 103.166666666773835, 20.854166666725916 ], [ 103.226956176994634, 20.825567287776096 ], [ 103.266666666645676, 20.824999999904094 ], [ 103.249432711976283, 20.794845242215729 ], [ 103.304126315718804, 20.74846971283813 ], [ 103.279519992321468, 20.718408881333062 ], [ 103.312854682198179, 20.660047743140694 ], [ 103.345833333403107, 20.637500000144428 ], [ 103.299062771191871, 20.591099378652132 ], [ 103.278420003435031, 20.604733954355311 ], [ 103.253205024104204, 20.584000651024041 ], [ 103.204166666726053, 20.591666666485025 ], [ 103.21581590444714, 20.517517428850113 ], [ 103.180066256942439, 20.495172118896619 ], [ 103.163155788990991, 20.463459947564729 ], [ 103.197789510194639, 20.429733954548283 ], [ 103.236649237592019, 20.424149237605661 ], [ 103.216666666709557, 20.379166666757783 ], [ 103.242233954534754, 20.329913330000068 ], [ 103.234184095774197, 20.313350762243147 ], [ 103.286822848819838, 20.311604478535799 ], [ 103.317517428850067, 20.246684095484341 ], [ 103.356623670885085, 20.262141926977222 ], [ 103.358691745513283, 20.214211696966004 ], [ 103.376742214660226, 20.196186658959277 ], [ 103.402210489856543, 20.199432712264695 ], [ 103.432586670115143, 20.170266045450887 ], [ 103.46575758199873, 20.18270975764699 ], [ 103.483333333219377, 20.166666666438061 ], [ 103.492284138939453, 20.117135958931215 ], [ 103.462500000120542, 20.083333333425287 ], [ 103.470833333247356, 20.012499999802344 ], [ 103.52556728788818, 19.963350083999444 ], [ 103.545833333133317, 19.912499999914303 ], [ 103.602951727831453, 19.907766045222616 ], [ 103.619121636205648, 19.94130893272893 ], [ 103.699999999794272, 19.908333333047494 ], [ 103.708333333528117, 19.883333333081453 ], [ 103.68714226637195, 19.818379550733027 ], [ 103.664217122229445, 19.795480007535502 ], [ 103.616666666781668, 19.791666666953176 ], [ 103.624999999897284, 19.737500000154682 ], [ 103.614710490145512, 19.729733954306198 ], [ 103.537500000017474, 19.737500000154682 ], [ 103.494845241814971, 19.7160993786066 ], [ 103.443749999855584, 19.753712632806014 ], [ 103.392370944437914, 19.744913906722672 ], [ 103.375000000240561, 19.670833333373537 ], [ 103.387500000223554, 19.666666666506728 ], [ 103.387146674516543, 19.564242214797559 ], [ 103.328385755597253, 19.463177829547249 ], [ 103.300673760112261, 19.461603631089986 ], [ 103.295833333476764, 19.416666666850176 ], [ 103.410075547770475, 19.379519992556652 ], [ 103.489710489749655, 19.382766045313872 ], [ 103.500567287918614, 19.377951727922721 ], [ 103.492290242566526, 19.321742587456015 ], [ 103.535416666593335, 19.320364549156864 ], [ 103.562499999983174, 19.295833333270707 ], [ 103.616666666781668, 19.304166666386323 ], [ 103.61727430550053, 19.288413323065299 ], [ 103.657355075451733, 19.2785124039587 ], [ 103.710289510129087, 19.221400621226508 ], [ 103.732750447764374, 19.224080234050405 ], [ 103.766099378728484, 19.193877156776921 ], [ 103.767265150151559, 19.159363640825745 ], [ 103.804166666523713, 19.129166666626929 ], [ 103.81701999220644, 19.06007554801397 ], [ 103.845833333339215, 19.024999999897261 ], [ 103.937500000086004, 19.00833333304729 ], [ 103.937500000086004, 18.983333333081646 ], [ 103.991258748141661, 18.975800578064707 ], [ 103.995609876753917, 18.995069715823718 ], [ 104.017879231813993, 19.000074598609785 ], [ 104.049188910438147, 18.995156860260295 ], [ 104.074999999897159, 18.962499999983152 ], [ 104.112499999845795, 19.012499999914439 ], [ 104.08693271203623, 19.040920003011991 ], [ 104.113409254071655, 19.09104309103094 ], [ 104.154166666661297, 19.120833333511086 ], [ 104.281591118906874, 19.120480007809249 ], [ 104.304166666455046, 19.112499999776901 ], [ 104.310075547770339, 19.087853325514516 ], [ 104.404166666935851, 19.054166666729941 ], [ 104.417299397703061, 19.013478936159572 ], [ 104.448974779066987, 18.986932712097087 ], [ 104.503174675917933, 19.00354919421693 ], [ 104.545195685578108, 18.974094306164943 ], [ 104.579166666695471, 18.904166666935794 ], [ 104.623290168032042, 18.891308593851704 ], [ 104.67083333344226, 18.841666666403512 ], [ 104.736728583451338, 18.815895250265498 ], [ 104.738264804453877, 18.800835842705055 ], [ 104.85245090077899, 18.774646674531937 ], [ 104.912499999983027, 18.783333333356723 ], [ 104.941666666827075, 18.741666666531444 ], [ 105.016666666712638, 18.737500000292016 ], [ 105.072575547937902, 18.700353325986271 ], [ 105.133333333425298, 18.7124999997082 ], [ 105.142593044661851, 18.675926377893234 ], [ 105.191931152439622, 18.644696044778755 ], [ 105.187500000223451, 18.608333333596931 ], [ 105.159548271788651, 18.617233954564995 ], [ 105.138467746419792, 18.599603949902644 ], [ 105.103462388657476, 18.450919596420192 ], [ 105.063137817610539, 18.432427639427374 ], [ 105.054790242307888, 18.396742418230133 ], [ 105.102670966277742, 18.375013224038639 ], [ 105.124002414097447, 18.413067287964395 ], [ 105.179166666489436, 18.391666666403637 ], [ 105.192019992175915, 18.376716444399108 ], [ 105.183333333356416, 18.325000000240664 ], [ 105.239957003934194, 18.295475260330704 ], [ 105.254166666386254, 18.258333333459518 ], [ 105.328432888523423, 18.261770629717319 ], [ 105.324344550008902, 18.196079169525035 ], [ 105.370587497122074, 18.157677883545148 ], [ 105.411600409746484, 18.154827880763833 ], [ 105.430908881200025, 18.216313340964916 ], [ 105.495833333545534, 18.191666666678202 ], [ 105.505082872421326, 18.129597981704478 ], [ 105.536741129339703, 18.115910847875455 ], [ 105.533994547516897, 18.088399590132269 ], [ 105.578549194551613, 18.060493469396818 ], [ 105.579848903972788, 18.017662896279489 ], [ 105.641666666472304, 17.987500000086129 ], [ 105.608333333383314, 17.891666666497031 ], [ 105.686901516538512, 17.832417636506193 ], [ 105.679733954347284, 17.78528951009713 ], [ 105.708597819172269, 17.753029547736844 ], [ 105.704903496817963, 17.738392469727671 ], [ 105.741099379015566, 17.718877156415829 ], [ 105.745833333218627, 17.674999999910199 ], [ 105.785543823365458, 17.674432712065936 ], [ 105.852924262298927, 17.620654635931089 ], [ 105.886811997965594, 17.620023769692011 ], [ 105.865998670945999, 17.599831644904157 ], [ 105.892494032196453, 17.563557264598273 ], [ 105.936620754855028, 17.549269273752145 ], [ 105.963173760184816, 17.4924667356957 ], [ 105.991061740379337, 17.493839348497261 ], [ 105.984048461890893, 17.459294467534164 ], [ 105.999362352275114, 17.453260972690543 ], [ 106.000850931814398, 17.41335093175195 ], [ 106.067046101992332, 17.388666619082187 ], [ 106.021574401846635, 17.386823018529583 ], [ 106.02083333342847, 17.374999999730221 ], [ 106.252084011534976, 17.245847235623899 ], [ 106.278813002031484, 17.264215766002224 ], [ 106.279166666787603, 17.295833333487792 ], [ 106.304166666781668, 17.295833333518544 ], [ 106.304733954622407, 17.260289510172072 ], [ 106.328599378878209, 17.231122843384526 ], [ 106.275719875765787, 17.220056661128297 ], [ 106.270190599223383, 17.187178209050273 ], [ 106.34999999988031, 17.145833333158635 ], [ 106.403813340971226, 17.085757785583496 ], [ 106.400055440236827, 17.051549953876304 ], [ 106.424392530822104, 17.032419840549437 ], [ 106.434242587672315, 16.992290242656736 ], [ 106.504166666542119, 16.970833333368489 ], [ 106.545833333338805, 17.000000000180194 ], [ 106.585416666706294, 16.991198052224775 ], [ 106.610289509922666, 16.938067288072091 ], [ 106.694982401623463, 16.953315904305612 ], [ 106.68664906799853, 16.884184095707383 ], [ 106.628599378578372, 16.865451728194046 ], [ 106.632873535070928, 16.847905137808254 ], [ 106.608686658967031, 16.814924452221248 ], [ 106.609347533971004, 16.738297865040408 ], [ 106.636728583349964, 16.732561916887335 ], [ 106.662500000045213, 16.683333333173664 ], [ 106.75741390652405, 16.624295722142165 ], [ 106.778697882679978, 16.589583333518704 ], [ 106.766666666766866, 16.554166666482104 ], [ 106.820833333548308, 16.558333333323333 ], [ 106.8874999997754, 16.516666666526874 ], [ 106.886849636701584, 16.446838718011577 ], [ 106.870215860938231, 16.429903496542806 ], [ 106.925919596133554, 16.358917236435104 ], [ 106.962500000224793, 16.358333333563451 ], [ 106.967881605456284, 16.303599378902902 ], [ 107.022916666718857, 16.307864718824533 ], [ 107.045833333278665, 16.291666666796687 ], [ 107.087500000075124, 16.312499999925194 ], [ 107.100355021063251, 16.37745361308788 ], [ 107.139242214492015, 16.391313340983743 ], [ 107.220039876321039, 16.357613796798887 ], [ 107.208342488760934, 16.33485582131874 ], [ 107.249999999880345, 16.308333333083567 ], [ 107.259127468445797, 16.250794135370654 ], [ 107.371450805487427, 16.130004882915898 ], [ 107.357715860900953, 16.119465467861062 ], [ 107.358333333443568, 16.062500000224929 ], [ 107.373286946625228, 16.053813340870931 ], [ 107.414242214666672, 16.078813340846011 ], [ 107.458333333323424, 16.075000000210025 ], [ 107.445266045478377, 16.038714938668704 ], [ 107.466313340791032, 16.014242214729961 ], [ 107.399303860278167, 15.896723937857303 ], [ 107.331122843264268, 15.891099378875708 ], [ 107.212959798108102, 15.827094692718447 ], [ 107.229431152161908, 15.784470452115386 ], [ 107.21249999991818, 15.733333333224209 ], [ 107.270833333569442, 15.708333333256746 ], [ 107.26193271201339, 15.667413330183308 ], [ 107.275919596216056, 15.633916219066066 ], [ 107.31159600131042, 15.63268890361519 ], [ 107.346400621311034, 15.607118394444342 ], [ 107.345833333470523, 15.575000000269995 ], [ 107.392233954420306, 15.521579996673381 ], [ 107.391666666546371, 15.495833333536211 ], [ 107.48252393910667, 15.499311998381643 ], [ 107.497247992781809, 15.475072903211526 ], [ 107.515815904162707, 15.490815734631497 ], [ 107.512500000115153, 15.416666666776507 ], [ 107.608333333125188, 15.395833333076041 ], [ 107.608971150934963, 15.33840569382545 ], [ 107.687499999885063, 15.283333333223993 ], [ 107.6922339545917, 15.231122843607864 ], [ 107.712677340836706, 15.205416361539733 ], [ 107.775567287658362, 15.223785061206456 ], [ 107.761932711956092, 15.170086670175067 ], [ 107.80079413516637, 15.038294135237834 ], [ 107.820096503528532, 15.028549194137895 ], [ 107.836693657607327, 15.042284139229253 ], [ 107.89098103848778, 15.040886433829428 ], [ 107.90833333332273, 15.004166666727315 ], [ 107.941666666447361, 14.999999999885688 ], [ 107.958333333256689, 15.037499999819261 ], [ 107.984184265283204, 15.005017428975862 ], [ 108.057445950203203, 14.982624986389453 ], [ 108.050734117404886, 14.938380940739705 ], [ 108.087499999950921, 14.908333333125029 ], [ 108.103989325811426, 14.909583197474831 ], [ 108.159232923743332, 14.97433878586429 ], [ 108.181591118571134, 14.970480007421202 ], [ 108.196315341502896, 14.957334052158672 ], [ 108.178637186521939, 14.917607286044586 ], [ 108.191666666676838, 14.854166666901733 ], [ 108.228459676190084, 14.840888807490671 ], [ 108.241344875712912, 14.799357096403526 ], [ 108.287500000254738, 14.820833333248459 ], [ 108.300353325891649, 14.805879720062705 ], [ 108.283333333400208, 14.729166666537708 ], [ 108.258947584164275, 14.719921535933338 ], [ 108.253599378753677, 14.676214938681028 ], [ 108.383333333293365, 14.670833333428561 ], [ 108.391666666437118, 14.599999999820398 ], [ 108.358333333323628, 14.570833333548137 ], [ 108.390892028876408, 14.557594129720144 ], [ 108.39647606722724, 14.537821790825319 ], [ 108.357967461355202, 14.428003607918129 ], [ 108.37083333330861, 14.404166666901517 ], [ 108.358347913989746, 14.381249999844044 ], [ 108.387146674420876, 14.327424452008643 ], [ 108.386911010788992, 14.292584906626132 ], [ 108.336649068148347, 14.238350762469565 ], [ 108.281237284408064, 14.241207885588949 ], [ 108.262499999745557, 14.225000000270143 ], [ 108.254166666601805, 14.108333333563166 ], [ 108.213235473485895, 14.107533433611934 ], [ 108.203461032472319, 14.071640353826069 ], [ 108.167327880768369, 14.044933742922865 ], [ 108.170141262344089, 14.025929599405174 ], [ 108.120833333068674, 14.000000000000284 ], [ 108.137499999895397, 13.950000000059902 ], [ 108.096684265152078, 13.936649068048609 ], [ 108.07004937062095, 13.900755310134059 ], [ 108.050948587930463, 13.904434034631379 ], [ 108.044835578235222, 13.884010314983072 ], [ 108.01250000003779, 13.883333333300243 ], [ 107.995833333218513, 13.837500000194893 ], [ 108.008686658917043, 13.818379550393161 ], [ 108.00000000006014, 13.795833333398434 ], [ 108.020833333212579, 13.745833333437474 ], [ 108.057413906574311, 13.732629055516782 ], [ 108.088202412817452, 13.66759982653025 ], [ 108.121400621422026, 13.638437228514135 ], [ 108.095266045278265, 13.571821424557925 ], [ 108.104777187794525, 13.488436889599825 ], [ 108.141666666736626, 13.495833333218457 ], [ 108.164569769822322, 13.454624939077178 ], [ 108.185543823215596, 13.461932712228247 ], [ 108.224999999790498, 13.42916666645209 ], [ 108.228807746160442, 13.393375481596422 ], [ 108.212499999805345, 13.387500000195075 ], [ 108.212985907767404, 13.364574856086847 ], [ 108.229746500775775, 13.321512688545397 ], [ 108.212062242187471, 13.30538143576149 ], [ 108.261920166099571, 13.23969794374932 ], [ 108.258686659116847, 13.185075548029204 ], [ 108.275807020488458, 13.146538967777929 ], [ 108.329166666511753, 13.116666666826802 ], [ 108.307766045515734, 13.01324666330737 ], [ 108.321400621222438, 13.002951728006678 ], [ 108.304166666542187, 12.950000000180012 ], [ 108.313208516649411, 12.905054050013177 ], [ 108.411452399534539, 12.866080390240313 ], [ 108.493622843472167, 12.763067287747333 ], [ 108.541666666796971, 12.749999999880288 ], [ 108.664924452170965, 12.770480007371418 ], [ 108.687146674121209, 12.756591118595964 ], [ 108.691666666625224, 12.724999999925274 ], [ 108.72445933003786, 12.703561740516875 ], [ 108.749228074666519, 12.707513427519018 ], [ 108.766061570997238, 12.677172851754165 ], [ 108.770480007670983, 12.614242214516878 ], [ 108.745480007696131, 12.593379720025098 ], [ 108.749644470365581, 12.485047065078675 ], [ 108.699999999760223, 12.479166666512015 ], [ 108.666666666646961, 12.437500000254829 ], [ 108.687853325954279, 12.372546386612839 ], [ 108.683333333473342, 12.316666666706851 ], [ 108.708686659117063, 12.305881076569904 ], [ 108.712499999780903, 12.195833333183145 ], [ 108.677083333220708, 12.204152086158842 ], [ 108.631122843325215, 12.191099378983097 ], [ 108.592413329931048, 12.149432712196926 ], [ 108.526029120383839, 12.161900160222729 ], [ 108.460543823406454, 12.108900621127873 ], [ 108.437854173660014, 12.11838175442341 ], [ 108.439456176704766, 12.136932712211092 ], [ 108.377210489833601, 12.096400621141299 ], [ 108.342575920726119, 12.103543090776782 ], [ 108.308333333386997, 12.066666666453216 ], [ 108.254166666597371, 12.050000000192767 ], [ 108.249642266283786, 12.026711527290672 ], [ 108.183900621376324, 11.964710489958009 ], [ 108.179166666693675, 11.908333333515372 ], [ 108.146933492225287, 11.874470520173702 ], [ 108.133941650444058, 11.878202141854501 ], [ 108.120030721145952, 11.817401801346307 ], [ 108.079166666821948, 11.799999999935949 ], [ 108.033994547738644, 11.846732923756122 ], [ 108.020266045341714, 11.879913329889519 ], [ 108.029166666886226, 11.908333333515372 ], [ 108.012386067683735, 11.93217451305776 ], [ 107.942135959370489, 11.874382358034779 ], [ 107.913309393836755, 11.884021334978684 ], [ 107.900000000192847, 11.916666666645597 ], [ 107.844896104805969, 11.8869327119898 ], [ 107.825887383212205, 11.896541849967946 ], [ 107.842233954424216, 11.942603895208549 ], [ 107.82409430593782, 11.970195685431975 ], [ 107.801249864600436, 11.975177341216408 ], [ 107.800353325963158, 12.026712884036499 ], [ 107.778599378776278, 12.065451728051755 ], [ 107.795098198861353, 12.128364054470239 ], [ 107.778366767189027, 12.149264526405773 ], [ 107.742375183140268, 12.155054049846683 ], [ 107.720266045672986, 12.190920003145379 ], [ 107.724646674175574, 12.219091118681376 ], [ 107.695156182089022, 12.257437812150101 ], [ 107.62621493890083, 12.241099378927743 ], [ 107.575000000027899, 12.324999999862257 ], [ 107.536753336372726, 12.333900621375847 ], [ 107.488350762381572, 12.328315904433282 ], [ 107.454854668454573, 12.290857272549829 ], [ 107.450000000192858, 12.254166666790013 ], [ 107.420833333365863, 12.245833333117503 ], [ 107.315815904391968, 12.369982571219452 ], [ 107.258802625963483, 12.349382527786759 ], [ 107.238306342028523, 12.363117472365616 ], [ 107.189710490151015, 12.325567287720901 ], [ 107.15, 12.333333333517771 ], [ 107.10833333321392, 12.312499999875911 ], [ 107.083333333226619, 12.22499999996819 ], [ 107.053474595737157, 12.175993516918595 ], [ 107.026367865567181, 12.175617472572753 ], [ 106.992321438383499, 12.140792168297537 ], [ 106.950000000256921, 12.050000000192767 ], [ 106.922048271852134, 12.054733954355129 ], [ 106.915676201759254, 12.029785834380277 ], [ 106.83749999982399, 12.037500000208524 ], [ 106.824338785807072, 11.942566256817997 ], [ 106.805154758115862, 11.928599378776141 ], [ 106.742881605217917, 11.942233954479491 ], [ 106.700661553117811, 11.915853373002847 ], [ 106.687030876878509, 11.874382358034779 ], [ 106.62500000009635, 11.87916666669355 ], [ 106.620833333242842, 11.895833333531471 ], [ 106.563312276114232, 11.917439608909035 ], [ 106.570040045826431, 11.945113796716896 ], [ 106.544821675376568, 11.958900621293253 ], [ 106.514710489902654, 11.938067287651734 ], [ 106.46335093180204, 11.936649068253985 ], [ 106.461901516195837, 11.913415696715504 ], [ 106.420833333499502, 11.874999999839872 ], [ 106.39068756117166, 11.850632731228302 ], [ 106.346742587774713, 11.845209757397413 ], [ 106.299999999936176, 11.799999999935949 ], [ 106.274999999968202, 11.820833333050246 ], [ 106.258333333158703, 11.80833333310369 ], [ 106.173283555838509, 11.807980007416916 ], [ 106.129785834325105, 11.834323798406615 ], [ 106.116666666453057, 11.866666666709648 ], [ 106.083333333354688, 11.858333333579424 ], [ 106.050000000256887, 11.920833333499274 ], [ 106.01007554789868, 11.912853325507626 ], [ 105.983333333462554, 11.929166666634785 ], [ 105.983333333483529, 11.958333333451151 ], [ 105.870086669889986, 11.950567287637739 ], [ 105.804166666853916, 11.916666666645597 ], [ 105.776742214491549, 11.937146674106543 ], [ 105.764953274184734, 11.921187845632346 ], [ 105.727453613288617, 11.916313340961835 ], [ 105.682346937209729, 11.970116170124754 ], [ 105.629166666501192, 11.9958333334028 ], [ 105.590763007125247, 11.933979119441403 ], [ 105.558900621293446, 11.914710490013022 ], [ 105.542233954479684, 11.88137715638527 ], [ 105.545833333467215, 11.841666666741673 ], [ 105.520172118924108, 11.813399590625068 ], [ 105.464456176511646, 11.803599378914328 ], [ 105.446301947852817, 11.785416666544961 ], [ 105.45788269054259, 11.764579433936262 ], [ 105.441666666741867, 11.741666666870003 ], [ 105.508645629667512, 11.617742411178483 ], [ 105.481122843325409, 11.624432712279713 ], [ 105.454166666717583, 11.608333333324595 ], [ 105.438350762160383, 11.619982401771153 ], [ 105.441422526034728, 11.596667819614709 ], [ 105.503145684241304, 11.574139404138862 ], [ 105.51666666664579, 11.495833333467374 ], [ 105.485075547981467, 11.487146674106498 ], [ 105.458333333579446, 11.454166666661479 ], [ 105.47048000734776, 11.40590888118146 ], [ 105.42585076217398, 11.361649068392296 ], [ 105.458333333579446, 11.283333333162432 ], [ 105.445147026912423, 11.234172566886116 ], [ 105.408890109536458, 11.206243387893494 ], [ 105.411687554189427, 11.179834662762346 ], [ 105.366666666837943, 11.166666666453182 ], [ 105.366666666837943, 11.150000000192733 ], [ 105.391929795961175, 11.148998006222655 ], [ 105.408333333066196, 11.091666666549258 ], [ 105.40416666678982, 11.062499999727606 ], [ 105.370833333114319, 11.033333333483313 ], [ 105.375353325659376, 10.976742214822764 ], [ 105.420195515818364, 10.974094306048073 ], [ 105.438067287762124, 10.940451727803406 ], [ 105.420266045231415, 10.92574666361395 ], [ 105.433333333611472, 10.895833333082066 ], [ 105.472201198960306, 10.857715861110762 ], [ 105.498290337331355, 10.887141926904178 ], [ 105.512498643572258, 10.827067396523717 ], [ 105.53333333348354, 10.825000000032219 ], [ 105.519623820040636, 10.800044759249374 ], [ 105.496595594559096, 10.795108710562829 ], [ 105.506185912845126, 10.717297024385743 ], [ 105.54583333346352, 10.700000000187401 ], [ 105.597460598322073, 10.729139879058721 ], [ 105.613599989098986, 10.720303683839802 ], [ 105.638552178309112, 10.770197889430904 ], [ 105.677248128227234, 10.775529649548389 ], [ 105.691666666437015, 10.795833333218354 ], [ 105.716666666407264, 10.779166666931644 ], [ 105.72916666693169, 10.795833333218354 ], [ 105.791005452307104, 10.786600409397863 ], [ 105.795480007496224, 10.726742214604144 ], [ 105.778813341145906, 10.664215765852077 ], [ 105.804153442405152, 10.638995700551902 ], [ 105.791099378965725, 10.632118394494285 ], [ 105.803112114766463, 10.584019639626035 ], [ 105.746770562288987, 10.566099378790796 ], [ 105.72916666693169, 10.58333333347332 ], [ 105.659694417490527, 10.566632758421065 ], [ 105.654970296133286, 10.550961642880509 ], [ 105.674332004321116, 10.545020887745409 ], [ 105.675000000150078, 10.529166666691879 ], [ 105.600000000239959, 10.529166666691879 ], [ 105.591049194500556, 10.504903496618113 ], [ 105.604960801933146, 10.475794135295473 ], [ 105.65494350870415, 10.434118313334523 ], [ 105.720437282770604, 10.453198920575062 ], [ 105.730017429144766, 10.405017429069687 ], [ 105.78037923184371, 10.370758735018683 ], [ 105.807864040745926, 10.400617472524459 ], [ 105.873862711691743, 10.416402180902878 ], [ 105.90891621924203, 10.465747070392069 ], [ 105.966666666646859, 10.508333333563371 ], [ 105.967233954509766, 10.45612284340973 ], [ 106.013208516249563, 10.396720716638299 ], [ 106.029913330257045, 10.408900621034661 ], [ 106.061362881261346, 10.399735514103156 ], [ 106.112500000165142, 10.429166666811852 ], [ 106.120161438044306, 10.405063544513439 ], [ 106.096189032479685, 10.380881076245032 ], [ 106.170086670042963, 10.349432712190662 ], [ 106.206249999819022, 10.362485419373343 ], [ 106.247980923102034, 10.354797024280288 ], [ 106.2674226549629, 10.378407796403678 ], [ 106.290981208035134, 10.370202975794996 ], [ 106.309564548017192, 10.408362494504161 ], [ 106.39083319759726, 10.388203599817075 ], [ 106.452160135993438, 10.428549194263041 ], [ 106.476742214704302, 10.325353325766685 ], [ 106.502135043835949, 10.325642903771609 ], [ 106.61339959030289, 10.411838785919599 ], [ 106.641666666916535, 10.395833333158748 ], [ 106.69932284901023, 10.421728854606272 ], [ 106.724986267196357, 10.452084011484828 ], [ 106.71214667429598, 10.468382432864473 ], [ 106.726742214454703, 10.482980007408969 ], [ 106.788067287772094, 10.409079996844696 ], [ 106.786932712053215, 10.297789509934717 ], [ 106.759270562176368, 10.266099378640888 ], [ 106.724999999966826, 10.270833333305745 ], [ 106.774604119190201, 10.244865587149889 ], [ 106.782664828924737, 10.217616102366094 ], [ 106.755103895363902, 10.199432712340752 ], [ 106.696770562239124, 10.229733954397204 ], [ 106.687500000016882, 10.216666666511344 ], [ 106.782482401535958, 10.169982571155685 ], [ 106.791099378865681, 10.101956176946771 ], [ 106.738246663632367, 10.045266045678204 ], [ 106.68836551224166, 10.042292616307066 ], [ 106.700567287859997, 10.061511908492662 ], [ 106.695833333139149, 10.066666666711171 ], [ 106.678599378977935, 10.052951727806601 ], [ 106.691000027278335, 10.013466389868142 ], [ 106.646770562289021, 9.970266045303219 ], [ 106.558333333322309, 9.995833333072426 ], [ 106.662104119302285, 9.932365587012498 ], [ 106.691099378965589, 9.876956176722445 ], [ 106.657365587037759, 9.825395880860412 ], [ 106.610289509922666, 9.800567288009404 ], [ 106.490815735010983, 9.919982401648269 ], [ 106.466666666566994, 9.929166666922981 ], [ 106.549540201971297, 9.847928026022942 ], [ 106.525746663394898, 9.828599378628496 ], [ 106.504989454440761, 9.845016988081397 ], [ 106.500000000200032, 9.829166666487822 ] ], [ [ 106.500000000200032, 9.829166666487822 ], [ 106.498825073130604, 9.83374464258543 ], [ 106.49526604552824, 9.830381605393598 ], [ 106.500000000200032, 9.829166666487822 ] ], [ [ 106.495340813428015, 9.852134195736596 ], [ 106.445266045691596, 9.890617201422685 ], [ 106.494444444755572, 9.850000000199884 ], [ 106.495340813428015, 9.852134195736596 ] ], [ [ 106.490277777797246, 9.8416666662838 ], [ 106.490169440068087, 9.846088324316725 ], [ 106.487033420456271, 9.843308003661605 ], [ 106.490277777797246, 9.8416666662838 ] ] ] } }
]
}
